zip,city,state,county
90001,Los Angeles,CA,Los Angeles
90002,Los Angeles,CA,Los Angeles
90003,Los Angeles,CA,Los Angeles
90004,Los Angeles,CA,Los Angeles
90005,Los Angeles,CA,Los Angeles
90006,Los Angeles,CA,Los Angeles
90007,Los Angeles,CA,Los Angeles
90008,Los Angeles,CA,Los Angeles
90009,Los Angeles,CA,Los Angeles
90010,Los Angeles,CA,Los Angeles
90011,Los Angeles,CA,Los Angeles
90012,Los Angeles,CA,Los Angeles
90013,Los Angeles,CA,Los Angeles
90014,Los Angeles,CA,Los Angeles
90015,Los Angeles,CA,Los Angeles
90016,Los Angeles,CA,Los Angeles
90017,Los Angeles,CA,Los Angeles
90018,Los Angeles,CA,Los Angeles
90019,Los Angeles,CA,Los Angeles
90020,Los Angeles,CA,Los Angeles
90021,Los Angeles,CA,Los Angeles
90022,Los Angeles,CA,Los Angeles
90023,Los Angeles,CA,Los Angeles
90024,Los Angeles,CA,Los Angeles
90025,Los Angeles,CA,Los Angeles
90026,Los Angeles,CA,Los Angeles
90027,Los Angeles,CA,Los Angeles
90028,Los Angeles,CA,Los Angeles
90029,Los Angeles,CA,Los Angeles
90030,Los Angeles,CA,Los Angeles
90031,Los Angeles,CA,Los Angeles
90032,Los Angeles,CA,Los Angeles
90033,Los Angeles,CA,Los Angeles
90034,Los Angeles,CA,Los Angeles
90035,Los Angeles,CA,Los Angeles
90036,Los Angeles,CA,Los Angeles
90037,Los Angeles,CA,Los Angeles
90038,Los Angeles,CA,Los Angeles
90039,Los Angeles,CA,Los Angeles
90040,Los Angeles,CA,Los Angeles
90041,Los Angeles,CA,Los Angeles
90042,Los Angeles,CA,Los Angeles
90043,Los Angeles,CA,Los Angeles
90044,Los Angeles,CA,Los Angeles
90045,Los Angeles,CA,Los Angeles
90046,Los Angeles,CA,Los Angeles
90047,Los Angeles,CA,Los Angeles
90048,Los Angeles,CA,Los Angeles
90049,Los Angeles,CA,Los Angeles
90050,Los Angeles,CA,Los Angeles
90051,Los Angeles,CA,Los Angeles
90052,Los Angeles,CA,Los Angeles
90053,Los Angeles,CA,Los Angeles
90054,Los Angeles,CA,Los Angeles
90055,Los Angeles,CA,Los Angeles
90056,Los Angeles,CA,Los Angeles
90057,Los Angeles,CA,Los Angeles
90058,Los Angeles,CA,Los Angeles
90059,Los Angeles,CA,Los Angeles
90060,Los Angeles,CA,Los Angeles
90061,Los Angeles,CA,Los Angeles
90062,Los Angeles,CA,Los Angeles
90063,Los Angeles,CA,Los Angeles
90064,Los Angeles,CA,Los Angeles
90065,Los Angeles,CA,Los Angeles
90066,Los Angeles,CA,Los Angeles
90067,Los Angeles,CA,Los Angeles
90068,Los Angeles,CA,Los Angeles
90069,West Hollywood,CA,Los Angeles
90070,Los Angeles,CA,Los Angeles
90071,Los Angeles,CA,Los Angeles
90072,Los Angeles,CA,Los Angeles
90073,Los Angeles,CA,Los Angeles
90074,Los Angeles,CA,Los Angeles
90075,Los Angeles,CA,Los Angeles
90076,Los Angeles,CA,Los Angeles
90077,Los Angeles,CA,Los Angeles
90078,Los Angeles,CA,Los Angeles
90079,Los Angeles,CA,Los Angeles
90080,Los Angeles,CA,Los Angeles
90081,Los Angeles,CA,Los Angeles
90082,Los Angeles,CA,Los Angeles
90083,Los Angeles,CA,Los Angeles
90084,Los Angeles,CA,Los Angeles
90086,Los Angeles,CA,Los Angeles
90087,Los Angeles,CA,Los Angeles
90088,Los Angeles,CA,Los Angeles
90089,Los Angeles,CA,Los Angeles
90091,Los Angeles,CA,Los Angeles
90093,Los Angeles,CA,Los Angeles
90094,Los Angeles,CA,Los Angeles
90095,Los Angeles,CA,Los Angeles
90096,Los Angeles,CA,Los Angeles
90099,Los Angeles,CA,Los Angeles
90101,Los Angeles,CA,Los Angeles
90102,Los Angeles,CA,Los Angeles
90103,Los Angeles,CA,Los Angeles
90189,Los Angeles,CA,Los Angeles
90201,Bell,CA,Los Angeles
90202,Bell Gardens,CA,Los Angeles
90209,Beverly Hills,CA,Los Angeles
90210,Beverly Hills,CA,Los Angeles
90211,Beverly Hills,CA,Los Angeles
90212,Beverly Hills,CA,Los Angeles
90213,Beverly Hills,CA,Los Angeles
90220,Compton,CA,Los Angeles
90221,Compton,CA,Los Angeles
90222,Compton,CA,Los Angeles
90223,Compton,CA,Los Angeles
90224,Compton,CA,Los Angeles
90230,Culver City,CA,Los Angeles
90231,Culver City,CA,Los Angeles
90232,Culver City,CA,Los Angeles
90233,Culver City,CA,Los Angeles
90239,Downey,CA,Los Angeles
90240,Downey,CA,Los Angeles
90241,Downey,CA,Los Angeles
90242,Downey,CA,Los Angeles
90245,El Segundo,CA,Los Angeles
90247,Gardena,CA,Los Angeles
90248,Gardena,CA,Los Angeles
90249,Gardena,CA,Los Angeles
90250,Hawthorne,CA,Los Angeles
90251,Hawthorne,CA,Los Angeles
90254,Hermosa Beach,CA,Los Angeles
90255,Huntington Park,CA,Los Angeles
90260,Lawndale,CA,Los Angeles
90261,Lawndale,CA,Los Angeles
90262,Lynwood,CA,Los Angeles
90263,Malibu,CA,Los Angeles
90264,Malibu,CA,Los Angeles
90265,Malibu,CA,Los Angeles
90266,Manhattan Beach,CA,Los Angeles
90267,Manhattan Beach,CA,Los Angeles
90270,Maywood,CA,Los Angeles
90272,Pacific Palisades,CA,Los Angeles
90274,Palos Verdes Peninsula,CA,Los Angeles
90275,Rancho Palos Verdes,CA,Los Angeles
90277,Redondo Beach,CA,Los Angeles
90278,Redondo Beach,CA,Los Angeles
90280,South Gate,CA,Los Angeles
90290,Topanga,CA,Los Angeles
90291,Venice,CA,Los Angeles
90292,Marina Del Rey,CA,Los Angeles
90293,Playa Del Rey,CA,Los Angeles
90294,Venice,CA,Los Angeles
90295,Marina Del Rey,CA,Los Angeles
90296,Playa Del Rey,CA,Los Angeles
90301,Inglewood,CA,Los Angeles
90302,Inglewood,CA,Los Angeles
90303,Inglewood,CA,Los Angeles
90304,Inglewood,CA,Los Angeles
90305,Inglewood,CA,Los Angeles
90306,Inglewood,CA,Los Angeles
90307,Inglewood,CA,Los Angeles
90308,Inglewood,CA,Los Angeles
90309,Inglewood,CA,Los Angeles
90310,Inglewood,CA,Los Angeles
90311,Inglewood,CA,Los Angeles
90312,Inglewood,CA,Los Angeles
90313,Inglewood,CA,Los Angeles
90397,Inglewood,CA,Los Angeles
90398,Inglewood,CA,Los Angeles
90401,Santa Monica,CA,Los Angeles
90402,Santa Monica,CA,Los Angeles
90403,Santa Monica,CA,Los Angeles
90404,Santa Monica,CA,Los Angeles
90405,Santa Monica,CA,Los Angeles
90406,Santa Monica,CA,Los Angeles
90407,Santa Monica,CA,Los Angeles
90408,Santa Monica,CA,Los Angeles
90409,Santa Monica,CA,Los Angeles
90410,Santa Monica,CA,Los Angeles
90411,Santa Monica,CA,Los Angeles
90501,Torrance,CA,Los Angeles
90502,Torrance,CA,Los Angeles
90503,Torrance,CA,Los Angeles
90504,Torrance,CA,Los Angeles
90505,Torrance,CA,Los Angeles
90506,Torrance,CA,Los Angeles
90507,Torrance,CA,Los Angeles
90508,Torrance,CA,Los Angeles
90509,Torrance,CA,Los Angeles
90510,Torrance,CA,Los Angeles
90601,Whittier,CA,Los Angeles
90602,Whittier,CA,Los Angeles
90603,Whittier,CA,Los Angeles
90604,Whittier,CA,Los Angeles
90605,Whittier,CA,Los Angeles
90606,Whittier,CA,Los Angeles
90607,Whittier,CA,Los Angeles
90608,Whittier,CA,Los Angeles
90609,Whittier,CA,Los Angeles
90610,Whittier,CA,Los Angeles
90612,Whittier,CA,Los Angeles
90620,Buena Park,CA,Orange
90621,Buena Park,CA,Orange
90622,Buena Park,CA,Orange
90623,La Palma,CA,Orange
90624,Buena Park,CA,Orange
90630,Cypress,CA,Orange
90631,La Habra,CA,Orange
90632,La Habra,CA,Orange
90633,La Habra,CA,Orange
90637,La Mirada,CA,Los Angeles
90638,La Mirada,CA,Los Angeles
90639,La Mirada,CA,Los Angeles
90640,Montebello,CA,Los Angeles
90650,Norwalk,CA,Los Angeles
90651,Norwalk,CA,Los Angeles
90652,Norwalk,CA,Los Angeles
90659,Norwalk,CA,Los Angeles
90660,Pico Rivera,CA,Los Angeles
90661,Pico Rivera,CA,Los Angeles
90662,Pico Rivera,CA,Los Angeles
90670,Santa Fe Springs,CA,Los Angeles
90671,Santa Fe Springs,CA,Los Angeles
90680,Stanton,CA,Orange
90701,Artesia,CA,Los Angeles
90702,Artesia,CA,Los Angeles
90703,Cerritos,CA,Los Angeles
90704,Avalon,CA,Los Angeles
90706,Bellflower,CA,Los Angeles
90707,Bellflower,CA,Los Angeles
90710,Harbor City,CA,Los Angeles
90711,Lakewood,CA,Los Angeles
90712,Lakewood,CA,Los Angeles
90713,Lakewood,CA,Los Angeles
90714,Lakewood,CA,Los Angeles
90715,Lakewood,CA,Los Angeles
90716,Hawaiian Gardens,CA,Los Angeles
90717,Lomita,CA,Los Angeles
90720,Los Alamitos,CA,Orange
90721,Los Alamitos,CA,Orange
90723,Paramount,CA,Los Angeles
90731,San Pedro,CA,Los Angeles
90732,San Pedro,CA,Los Angeles
90733,San Pedro,CA,Los Angeles
90734,San Pedro,CA,Los Angeles
90740,Seal Beach,CA,Orange
90742,Sunset Beach,CA,Orange
90743,Surfside,CA,Orange
90744,Wilmington,CA,Los Angeles
90745,Carson,CA,Los Angeles
90746,Carson,CA,Los Angeles
90747,Carson,CA,Los Angeles
90748,Wilmington,CA,Los Angeles
90749,Carson,CA,Los Angeles
90755,Signal Hill,CA,Los Angeles
90801,Long Beach,CA,Los Angeles
90802,Long Beach,CA,Los Angeles
90803,Long Beach,CA,Los Angeles
90804,Long Beach,CA,Los Angeles
90805,Long Beach,CA,Los Angeles
90806,Long Beach,CA,Los Angeles
90807,Long Beach,CA,Los Angeles
90808,Long Beach,CA,Los Angeles
90809,Long Beach,CA,Los Angeles
90810,Long Beach,CA,Los Angeles
90813,Long Beach,CA,Los Angeles
90814,Long Beach,CA,Los Angeles
90815,Long Beach,CA,Los Angeles
90822,Long Beach,CA,Los Angeles
90831,Long Beach,CA,Los Angeles
90832,Long Beach,CA,Los Angeles
90833,Long Beach,CA,Los Angeles
90834,Long Beach,CA,Los Angeles
90835,Long Beach,CA,Los Angeles
90840,Long Beach,CA,Los Angeles
90842,Long Beach,CA,Los Angeles
90844,Long Beach,CA,Los Angeles
90845,Long Beach,CA,Los Angeles
90846,Long Beach,CA,Los Angeles
90847,Long Beach,CA,Los Angeles
90848,Long Beach,CA,Los Angeles
90853,Long Beach,CA,Los Angeles
90888,Long Beach,CA,Los Angeles
90895,Carson,CA,Los Angeles
90899,Long Beach,CA,Los Angeles
91001,Altadena,CA,Los Angeles
91003,Altadena,CA,Los Angeles
91006,Arcadia,CA,Los Angeles
91007,Arcadia,CA,Los Angeles
91009,Duarte,CA,Los Angeles
91010,Duarte,CA,Los Angeles
91011,La Canada Flintridge,CA,Los Angeles
91012,La Canada Flintridge,CA,Los Angeles
91016,Monrovia,CA,Los Angeles
91017,Monrovia,CA,Los Angeles
91020,Montrose,CA,Los Angeles
91021,Montrose,CA,Los Angeles
91023,Mount Wilson,CA,Los Angeles
91024,Sierra Madre,CA,Los Angeles
91025,Sierra Madre,CA,Los Angeles
91030,South Pasadena,CA,Los Angeles
91031,South Pasadena,CA,Los Angeles
91040,Sunland,CA,Los Angeles
91041,Sunland,CA,Los Angeles
91042,Tujunga,CA,Los Angeles
91043,Tujunga,CA,Los Angeles
91046,Verdugo City,CA,Los Angeles
91066,Arcadia,CA,Los Angeles
91077,Arcadia,CA,Los Angeles
91101,Pasadena,CA,Los Angeles
91102,Pasadena,CA,Los Angeles
91103,Pasadena,CA,Los Angeles
91104,Pasadena,CA,Los Angeles
91105,Pasadena,CA,Los Angeles
91106,Pasadena,CA,Los Angeles
91107,Pasadena,CA,Los Angeles
91108,San Marino,CA,Los Angeles
91109,Pasadena,CA,Los Angeles
91110,Pasadena,CA,Los Angeles
91114,Pasadena,CA,Los Angeles
91115,Pasadena,CA,Los Angeles
91116,Pasadena,CA,Los Angeles
91117,Pasadena,CA,Los Angeles
91118,San Marino,CA,Los Angeles
91121,Pasadena,CA,Los Angeles
91123,Pasadena,CA,Los Angeles
91124,Pasadena,CA,Los Angeles
91125,Pasadena,CA,Los Angeles
91126,Pasadena,CA,Los Angeles
91129,Pasadena,CA,Los Angeles
91131,Pasadena,CA,Los Angeles
91182,Pasadena,CA,Los Angeles
91184,Pasadena,CA,Los Angeles
91185,Pasadena,CA,Los Angeles
91188,Pasadena,CA,Los Angeles
91189,Pasadena,CA,Los Angeles
91191,Pasadena,CA,Los Angeles
91199,Pasadena,CA,Los Angeles
91201,Glendale,CA,Los Angeles
91202,Glendale,CA,Los Angeles
91203,Glendale,CA,Los Angeles
91204,Glendale,CA,Los Angeles
91205,Glendale,CA,Los Angeles
91206,Glendale,CA,Los Angeles
91207,Glendale,CA,Los Angeles
91208,Glendale,CA,Los Angeles
91209,Glendale,CA,Los Angeles
91210,Glendale,CA,Los Angeles
91214,La Crescenta,CA,Los Angeles
91221,Glendale,CA,Los Angeles
91222,Glendale,CA,Los Angeles
91224,La Crescenta,CA,Los Angeles
91225,Glendale,CA,Los Angeles
91226,Glendale,CA,Los Angeles
91301,Agoura Hills,CA,Los Angeles
91302,Calabasas,CA,Los Angeles
91303,Canoga Park,CA,Los Angeles
91304,Canoga Park,CA,Los Angeles
91305,Canoga Park,CA,Los Angeles
91306,Winnetka,CA,Los Angeles
91307,West Hills,CA,Los Angeles
91308,West Hills,CA,Los Angeles
91309,Canoga Park,CA,Los Angeles
91310,Castaic,CA,Los Angeles
91311,Chatsworth,CA,Los Angeles
91313,Chatsworth,CA,Los Angeles
91316,Encino,CA,Los Angeles
91319,Newbury Park,CA,Ventura
91320,Newbury Park,CA,Ventura
91321,Newhall,CA,Los Angeles
91322,Newhall,CA,Los Angeles
91324,Northridge,CA,Los Angeles
91325,Northridge,CA,Los Angeles
91326,Porter Ranch,CA,Los Angeles
91327,Northridge,CA,Los Angeles
91328,Northridge,CA,Los Angeles
91329,Northridge,CA,Los Angeles
91330,Northridge,CA,Los Angeles
91331,Pacoima,CA,Los Angeles
91333,Pacoima,CA,Los Angeles
91334,Pacoima,CA,Los Angeles
91335,Reseda,CA,Los Angeles
91337,Reseda,CA,Los Angeles
91340,San Fernando,CA,Los Angeles
91341,San Fernando,CA,Los Angeles
91342,Sylmar,CA,Los Angeles
91343,North Hills,CA,Los Angeles
91344,Granada Hills,CA,Los Angeles
91345,Mission Hills,CA,Los Angeles
91346,Mission Hills,CA,Los Angeles
91350,Santa Clarita,CA,Los Angeles
91351,Canyon Country,CA,Los Angeles
91352,Sun Valley,CA,Los Angeles
91353,Sun Valley,CA,Los Angeles
91354,Valencia,CA,Los Angeles
91355,Valencia,CA,Los Angeles
91356,Tarzana,CA,Los Angeles
91357,Tarzana,CA,Los Angeles
91358,Thousand Oaks,CA,Ventura
91359,Westlake Village,CA,Ventura
91360,Thousand Oaks,CA,Ventura
91361,Westlake Village,CA,Ventura
91362,Thousand Oaks,CA,Ventura
91363,Westlake Village,CA,Los Angeles
91364,Woodland Hills,CA,Los Angeles
91365,Woodland Hills,CA,Los Angeles
91367,Woodland Hills,CA,Los Angeles
91371,Woodland Hills,CA,Los Angeles
91372,Calabasas,CA,Los Angeles
91376,Agoura Hills,CA,Los Angeles
91377,Oak Park,CA,Ventura
91380,Santa Clarita,CA,Los Angeles
91381,Stevenson Ranch,CA,Los Angeles
91382,Santa Clarita,CA,Los Angeles
91383,Santa Clarita,CA,Los Angeles
91384,Castaic,CA,Los Angeles
91385,Valencia,CA,Los Angeles
91386,Canyon Country,CA,Los Angeles
91387,Canyon Country,CA,Los Angeles
91388,Van Nuys,CA,Los Angeles
91390,Santa Clarita,CA,Los Angeles
91392,Sylmar,CA,Los Angeles
91393,North Hills,CA,Los Angeles
91394,Granada Hills,CA,Los Angeles
91395,Mission Hills,CA,Los Angeles
91396,Winnetka,CA,Los Angeles
91399,Woodland Hills,CA,Los Angeles
91401,Van Nuys,CA,Los Angeles
91402,Panorama City,CA,Los Angeles
91403,Sherman Oaks,CA,Los Angeles
91404,Van Nuys,CA,Los Angeles
91405,Van Nuys,CA,Los Angeles
91406,Van Nuys,CA,Los Angeles
91407,Van Nuys,CA,Los Angeles
91408,Van Nuys,CA,Los Angeles
91409,Van Nuys,CA,Los Angeles
91410,Van Nuys,CA,Los Angeles
91411,Van Nuys,CA,Los Angeles
91412,Panorama City,CA,Los Angeles
91413,Sherman Oaks,CA,Los Angeles
91416,Encino,CA,Los Angeles
91423,Sherman Oaks,CA,Los Angeles
91426,Encino,CA,Los Angeles
91436,Encino,CA,Los Angeles
91470,Van Nuys,CA,Los Angeles
91482,Van Nuys,CA,Los Angeles
91495,Sherman Oaks,CA,Los Angeles
91496,Van Nuys,CA,Los Angeles
91497,Van Nuys,CA,Los Angeles
91499,Van Nuys,CA,Los Angeles
91501,Burbank,CA,Los Angeles
91502,Burbank,CA,Los Angeles
91503,Burbank,CA,Los Angeles
91504,Burbank,CA,Los Angeles
91505,Burbank,CA,Los Angeles
91506,Burbank,CA,Los Angeles
91507,Burbank,CA,Los Angeles
91508,Burbank,CA,Los Angeles
91510,Burbank,CA,Los Angeles
91521,Burbank,CA,Los Angeles
91522,Burbank,CA,Los Angeles
91523,Burbank,CA,Los Angeles
91526,Burbank,CA,Los Angeles
91601,North Hollywood,CA,Los Angeles
91602,North Hollywood,CA,Los Angeles
91603,North Hollywood,CA,Los Angeles
91604,Studio City,CA,Los Angeles
91605,North Hollywood,CA,Los Angeles
91606,North Hollywood,CA,Los Angeles
91607,Valley Village,CA,Los Angeles
91608,Universal City,CA,Los Angeles
91609,North Hollywood,CA,Los Angeles
91610,Toluca Lake,CA,Los Angeles
91611,North Hollywood,CA,Los Angeles
91612,North Hollywood,CA,Los Angeles
91614,Studio City,CA,Los Angeles
91615,North Hollywood,CA,Los Angeles
91616,North Hollywood,CA,Los Angeles
91617,Valley Village,CA,Los Angeles
91618,North Hollywood,CA,Los Angeles
91701,Rancho Cucamonga,CA,San Bernardino
91702,Azusa,CA,Los Angeles
91706,Baldwin Park,CA,Los Angeles
91708,Chino,CA,San Bernardino
91709,Chino Hills,CA,San Bernardino
91710,Chino,CA,San Bernardino
91711,Claremont,CA,Los Angeles
91714,City Of Industry,CA,Los Angeles
91715,City Of Industry,CA,Los Angeles
91716,City Of Industry,CA,Los Angeles
91722,Covina,CA,Los Angeles
91723,Covina,CA,Los Angeles
91724,Covina,CA,Los Angeles
91729,Rancho Cucamonga,CA,San Bernardino
91730,Rancho Cucamonga,CA,San Bernardino
91731,El Monte,CA,Los Angeles
91732,El Monte,CA,Los Angeles
91733,South El Monte,CA,Los Angeles
91734,El Monte,CA,Los Angeles
91735,El Monte,CA,Los Angeles
91737,Rancho Cucamonga,CA,San Bernardino
91739,Rancho Cucamonga,CA,San Bernardino
91740,Glendora,CA,Los Angeles
91741,Glendora,CA,Los Angeles
91743,Guasti,CA,San Bernardino
91744,La Puente,CA,Los Angeles
91745,Hacienda Heights,CA,Los Angeles
91746,La Puente,CA,Los Angeles
91747,La Puente,CA,Los Angeles
91748,Rowland Heights,CA,Los Angeles
91749,La Puente,CA,Los Angeles
91750,La Verne,CA,Los Angeles
91752,Mira Loma,CA,Riverside
91754,Monterey Park,CA,Los Angeles
91755,Monterey Park,CA,Los Angeles
91756,Monterey Park,CA,Los Angeles
91758,Ontario,CA,San Bernardino
91759,Mt Baldy,CA,Los Angeles
91761,Ontario,CA,San Bernardino
91762,Ontario,CA,San Bernardino
91763,Montclair,CA,San Bernardino
91764,Ontario,CA,San Bernardino
91765,Diamond Bar,CA,Los Angeles
91766,Pomona,CA,Los Angeles
91767,Pomona,CA,Los Angeles
91768,Pomona,CA,Los Angeles
91769,Pomona,CA,Los Angeles
91770,Rosemead,CA,Los Angeles
91771,Rosemead,CA,Los Angeles
91772,Rosemead,CA,Los Angeles
91773,San Dimas,CA,Los Angeles
91775,San Gabriel,CA,Los Angeles
91776,San Gabriel,CA,Los Angeles
91778,San Gabriel,CA,Los Angeles
91780,Temple City,CA,Los Angeles
91784,Upland,CA,San Bernardino
91785,Upland,CA,San Bernardino
91786,Upland,CA,San Bernardino
91788,Walnut,CA,Los Angeles
91789,Walnut,CA,Los Angeles
91790,West Covina,CA,Los Angeles
91791,West Covina,CA,Los Angeles
91792,West Covina,CA,Los Angeles
91793,West Covina,CA,Los Angeles
91795,Walnut,CA,Los Angeles
91797,Pomona,CA,Los Angeles
91798,Ontario,CA,San Bernardino
91799,Pomona,CA,Los Angeles
91801,Alhambra,CA,Los Angeles
91802,Alhambra,CA,Los Angeles
91803,Alhambra,CA,Los Angeles
91804,Alhambra,CA,Los Angeles
91841,Alhambra,CA,Los Angeles
91896,Alhambra,CA,Los Angeles
91899,Alhambra,CA,Los Angeles
91901,Alpine,CA,San Diego
91902,Bonita,CA,San Diego
91903,Alpine,CA,San Diego
91905,Boulevard,CA,San Diego
91906,Campo,CA,San Diego
91908,Bonita,CA,San Diego
91909,Chula Vista,CA,San Diego
91910,Chula Vista,CA,San Diego
91911,Chula Vista,CA,San Diego
91912,Chula Vista,CA,San Diego
91913,Chula Vista,CA,San Diego
91914,Chula Vista,CA,San Diego
91915,Chula Vista,CA,San Diego
91916,Descanso,CA,San Diego
91917,Dulzura,CA,San Diego
91921,Chula Vista,CA,San Diego
91931,Guatay,CA,San Diego
91932,Imperial Beach,CA,San Diego
91933,Imperial Beach,CA,San Diego
91934,Jacumba,CA,San Diego
91935,Jamul,CA,San Diego
91941,La Mesa,CA,San Diego
91942,La Mesa,CA,San Diego
91943,La Mesa,CA,San Diego
91944,La Mesa,CA,San Diego
91945,Lemon Grove,CA,San Diego
91946,Lemon Grove,CA,San Diego
91947,Lincoln Acres,CA,San Diego
91948,Mount Laguna,CA,San Diego
91950,National City,CA,San Diego
91951,National City,CA,San Diego
91962,Pine Valley,CA,San Diego
91963,Potrero,CA,San Diego
91976,Spring Valley,CA,San Diego
91977,Spring Valley,CA,San Diego
91978,Spring Valley,CA,San Diego
91979,Spring Valley,CA,San Diego
91980,Tecate,CA,San Diego
91987,Tecate,CA,San Diego
91990,Potrero,CA,San Diego
92003,Bonsall,CA,San Diego
92004,Borrego Springs,CA,San Diego
92007,Cardiff By The Sea,CA,San Diego
92008,Carlsbad,CA,San Diego
92009,Carlsbad,CA,San Diego
92010,Carlsbad,CA,San Diego
92011,Carlsbad,CA,San Diego
92013,Carlsbad,CA,San Diego
92014,Del Mar,CA,San Diego
92018,Carlsbad,CA,San Diego
92019,El Cajon,CA,San Diego
92020,El Cajon,CA,San Diego
92021,El Cajon,CA,San Diego
92022,El Cajon,CA,San Diego
92023,Encinitas,CA,San Diego
92024,Encinitas,CA,San Diego
92025,Escondido,CA,San Diego
92026,Escondido,CA,San Diego
92027,Escondido,CA,San Diego
92028,Fallbrook,CA,San Diego
92029,Escondido,CA,San Diego
92030,Escondido,CA,San Diego
92033,Escondido,CA,San Diego
92036,Julian,CA,San Diego
92037,La Jolla,CA,San Diego
92038,La Jolla,CA,San Diego
92039,La Jolla,CA,San Diego
92040,Lakeside,CA,San Diego
92046,Escondido,CA,San Diego
92049,Oceanside,CA,San Diego
92051,Oceanside,CA,San Diego
92052,Oceanside,CA,San Diego
92054,Oceanside,CA,San Diego
92055,Camp Pendleton,CA,San Diego
92056,Oceanside,CA,San Diego
92057,Oceanside,CA,San Diego
92059,Pala,CA,San Diego
92060,Palomar Mountain,CA,San Diego
92061,Pauma Valley,CA,San Diego
92064,Poway,CA,San Diego
92065,Ramona,CA,San Diego
92066,Ranchita,CA,San Diego
92067,Rancho Santa Fe,CA,San Diego
92068,San Luis Rey,CA,San Diego
92069,San Marcos,CA,San Diego
92070,Santa Ysabel,CA,San Diego
92071,Santee,CA,San Diego
92072,Santee,CA,San Diego
92074,Poway,CA,San Diego
92075,Solana Beach,CA,San Diego
92078,San Marcos,CA,San Diego
92079,San Marcos,CA,San Diego
92081,Vista,CA,San Diego
92082,Valley Center,CA,San Diego
92083,Vista,CA,San Diego
92084,Vista,CA,San Diego
92085,Vista,CA,San Diego
92086,Warner Springs,CA,San Diego
92088,Fallbrook,CA,San Diego
92090,El Cajon,CA,San Diego
92091,Rancho Santa Fe,CA,San Diego
92092,La Jolla,CA,San Diego
92093,La Jolla,CA,San Diego
92096,San Marcos,CA,San Diego
92101,San Diego,CA,San Diego
92102,San Diego,CA,San Diego
92103,San Diego,CA,San Diego
92104,San Diego,CA,San Diego
92105,San Diego,CA,San Diego
92106,San Diego,CA,San Diego
92107,San Diego,CA,San Diego
92108,San Diego,CA,San Diego
92109,San Diego,CA,San Diego
92110,San Diego,CA,San Diego
92111,San Diego,CA,San Diego
92112,San Diego,CA,San Diego
92113,San Diego,CA,San Diego
92114,San Diego,CA,San Diego
92115,San Diego,CA,San Diego
92116,San Diego,CA,San Diego
92117,San Diego,CA,San Diego
92118,Coronado,CA,San Diego
92119,San Diego,CA,San Diego
92120,San Diego,CA,San Diego
92121,San Diego,CA,San Diego
92122,San Diego,CA,San Diego
92123,San Diego,CA,San Diego
92124,San Diego,CA,San Diego
92126,San Diego,CA,San Diego
92127,San Diego,CA,San Diego
92128,San Diego,CA,San Diego
92129,San Diego,CA,San Diego
92130,San Diego,CA,San Diego
92131,San Diego,CA,San Diego
92132,San Diego,CA,San Diego
92133,San Diego,CA,San Diego
92134,San Diego,CA,San Diego
92135,San Diego,CA,San Diego
92136,San Diego,CA,San Diego
92137,San Diego,CA,San Diego
92138,San Diego,CA,San Diego
92139,San Diego,CA,San Diego
92140,San Diego,CA,San Diego
92142,San Diego,CA,San Diego
92143,San Ysidro,CA,San Diego
92145,San Diego,CA,San Diego
92147,San Diego,CA,San Diego
92149,San Diego,CA,San Diego
92150,San Diego,CA,San Diego
92152,San Diego,CA,San Diego
92153,San Diego,CA,San Diego
92154,San Diego,CA,San Diego
92155,San Diego,CA,San Diego
92158,San Diego,CA,San Diego
92159,San Diego,CA,San Diego
92160,San Diego,CA,San Diego
92161,San Diego,CA,San Diego
92162,San Diego,CA,San Diego
92163,San Diego,CA,San Diego
92164,San Diego,CA,San Diego
92165,San Diego,CA,San Diego
92166,San Diego,CA,San Diego
92167,San Diego,CA,San Diego
92168,San Diego,CA,San Diego
92169,San Diego,CA,San Diego
92170,San Diego,CA,San Diego
92171,San Diego,CA,San Diego
92172,San Diego,CA,San Diego
92173,San Ysidro,CA,San Diego
92174,San Diego,CA,San Diego
92175,San Diego,CA,San Diego
92176,San Diego,CA,San Diego
92177,San Diego,CA,San Diego
92178,Coronado,CA,San Diego
92179,San Diego,CA,San Diego
92182,San Diego,CA,San Diego
92184,San Diego,CA,San Diego
92186,San Diego,CA,San Diego
92187,San Diego,CA,San Diego
92190,San Diego,CA,San Diego
92191,San Diego,CA,San Diego
92192,San Diego,CA,San Diego
92193,San Diego,CA,San Diego
92194,San Diego,CA,San Diego
92195,San Diego,CA,San Diego
92196,San Diego,CA,San Diego
92197,San Diego,CA,San Diego
92198,San Diego,CA,San Diego
92199,San Diego,CA,San Diego
92201,Indio,CA,Riverside
92202,Indio,CA,Riverside
92203,Indio,CA,Riverside
92210,Indian Wells,CA,Riverside
92211,Palm Desert,CA,Riverside
92220,Banning,CA,Riverside
92222,Bard,CA,Imperial
92223,Beaumont,CA,Riverside
92225,Blythe,CA,Riverside
92226,Blythe,CA,Riverside
92227,Brawley,CA,Imperial
92230,Cabazon,CA,Riverside
92231,Calexico,CA,Imperial
92232,Calexico,CA,Imperial
92233,Calipatria,CA,Imperial
92234,Cathedral City,CA,Riverside
92235,Cathedral City,CA,Riverside
92236,Coachella,CA,Riverside
92239,Desert Center,CA,Riverside
92240,Desert Hot Springs,CA,Riverside
92241,Desert Hot Springs,CA,Riverside
92242,Earp,CA,San Bernardino
92243,El Centro,CA,Imperial
92244,El Centro,CA,Imperial
92247,La Quinta,CA,Riverside
92248,La Quinta,CA,Riverside
92249,Heber,CA,Imperial
92250,Holtville,CA,Imperial
92251,Imperial,CA,Imperial
92252,Joshua Tree,CA,San Bernardino
92253,La Quinta,CA,Riverside
92254,Mecca,CA,Riverside
92255,Palm Desert,CA,Riverside
92256,Morongo Valley,CA,San Bernardino
92257,Niland,CA,Imperial
92258,North Palm Springs,CA,Riverside
92259,Ocotillo,CA,Imperial
92260,Palm Desert,CA,Riverside
92261,Palm Desert,CA,Riverside
92262,Palm Springs,CA,Riverside
92263,Palm Springs,CA,Riverside
92264,Palm Springs,CA,Riverside
92266,Palo Verde,CA,Imperial
92267,Parker Dam,CA,San Bernardino
92268,Pioneertown,CA,San Bernardino
92270,Rancho Mirage,CA,Riverside
92273,Seeley,CA,Imperial
92274,Thermal,CA,Riverside
92275,Salton City,CA,Imperial
92276,Thousand Palms,CA,Riverside
92277,Twentynine Palms,CA,San Bernardino
92278,Twentynine Palms,CA,San Bernardino
92280,Vidal,CA,San Bernardino
92281,Westmorland,CA,Imperial
92282,White Water,CA,Riverside
92283,Winterhaven,CA,Imperial
92284,Yucca Valley,CA,San Bernardino
92285,Landers,CA,San Bernardino
92286,Yucca Valley,CA,San Bernardino
92292,Palm Springs,CA,Riverside
92301,Adelanto,CA,San Bernardino
92304,Amboy,CA,San Bernardino
92305,Angelus Oaks,CA,San Bernardino
92307,Apple Valley,CA,San Bernardino
92308,Apple Valley,CA,San Bernardino
92309,Baker,CA,San Bernardino
92310,Fort Irwin,CA,San Bernardino
92311,Barstow,CA,San Bernardino
92312,Barstow,CA,San Bernardino
92313,Grand Terrace,CA,San Bernardino
92314,Big Bear City,CA,San Bernardino
92315,Big Bear Lake,CA,San Bernardino
92316,Bloomington,CA,San Bernardino
92317,Blue Jay,CA,San Bernardino
92318,Bryn Mawr,CA,San Bernardino
92320,Calimesa,CA,Riverside
92321,Cedar Glen,CA,San Bernardino
92322,Cedarpines Park,CA,San Bernardino
92323,Cima,CA,San Bernardino
92324,Colton,CA,San Bernardino
92325,Crestline,CA,San Bernardino
92326,Crest Park,CA,San Bernardino
92327,Daggett,CA,San Bernardino
92328,Death Valley,CA,Inyo
92329,Phelan,CA,San Bernardino
92331,Fontana,CA,San Bernardino
92332,Essex,CA,San Bernardino
92333,Fawnskin,CA,San Bernardino
92334,Fontana,CA,San Bernardino
92335,Fontana,CA,San Bernardino
92336,Fontana,CA,San Bernardino
92337,Fontana,CA,San Bernardino
92338,Ludlow,CA,San Bernardino
92339,Forest Falls,CA,San Bernardino
92340,Hesperia,CA,San Bernardino
92341,Green Valley Lake,CA,San Bernardino
92342,Helendale,CA,San Bernardino
92344,Hesperia,CA,San Bernardino
92345,Hesperia,CA,San Bernardino
92346,Highland,CA,San Bernardino
92347,Hinkley,CA,San Bernardino
92350,Loma Linda,CA,San Bernardino
92352,Lake Arrowhead,CA,San Bernardino
92354,Loma Linda,CA,San Bernardino
92356,Lucerne Valley,CA,San Bernardino
92357,Loma Linda,CA,San Bernardino
92358,Lytle Creek,CA,San Bernardino
92359,Mentone,CA,San Bernardino
92363,Needles,CA,San Bernardino
92364,Nipton,CA,San Bernardino
92365,Newberry Springs,CA,San Bernardino
92366,Mountain Pass,CA,San Bernardino
92368,Oro Grande,CA,San Bernardino
92369,Patton,CA,San Bernardino
92371,Phelan,CA,San Bernardino
92372,Pinon Hills,CA,San Bernardino
92373,Redlands,CA,San Bernardino
92374,Redlands,CA,San Bernardino
92375,Redlands,CA,San Bernardino
92376,Rialto,CA,San Bernardino
92377,Rialto,CA,San Bernardino
92378,Rimforest,CA,San Bernardino
92382,Running Springs,CA,San Bernardino
92384,Shoshone,CA,Inyo
92385,Skyforest,CA,San Bernardino
92386,Sugarloaf,CA,San Bernardino
92389,Tecopa,CA,Inyo
92391,Twin Peaks,CA,San Bernardino
92392,Victorville,CA,San Bernardino
92393,Victorville,CA,San Bernardino
92394,Victorville,CA,San Bernardino
92395,Victorville,CA,San Bernardino
92397,Wrightwood,CA,San Bernardino
92398,Yermo,CA,San Bernardino
92399,Yucaipa,CA,San Bernardino
92401,San Bernardino,CA,San Bernardino
92402,San Bernardino,CA,San Bernardino
92403,San Bernardino,CA,San Bernardino
92404,San Bernardino,CA,San Bernardino
92405,San Bernardino,CA,San Bernardino
92406,San Bernardino,CA,San Bernardino
92407,San Bernardino,CA,San Bernardino
92408,San Bernardino,CA,San Bernardino
92410,San Bernardino,CA,San Bernardino
92411,San Bernardino,CA,San Bernardino
92412,San Bernardino,CA,San Bernardino
92413,San Bernardino,CA,San Bernardino
92414,San Bernardino,CA,San Bernardino
92415,San Bernardino,CA,San Bernardino
92418,San Bernardino,CA,San Bernardino
92423,San Bernardino,CA,San Bernardino
92424,San Bernardino,CA,San Bernardino
92427,San Bernardino,CA,San Bernardino
92501,Riverside,CA,Riverside
92502,Riverside,CA,Riverside
92503,Riverside,CA,Riverside
92504,Riverside,CA,Riverside
92505,Riverside,CA,Riverside
92506,Riverside,CA,Riverside
92507,Riverside,CA,Riverside
92508,Riverside,CA,Riverside
92509,Riverside,CA,Riverside
92513,Riverside,CA,Riverside
92514,Riverside,CA,Riverside
92515,Riverside,CA,Riverside
92516,Riverside,CA,Riverside
92517,Riverside,CA,Riverside
92518,March Air Reserve Base,CA,Riverside
92519,Riverside,CA,Riverside
92521,Riverside,CA,Riverside
92522,Riverside,CA,Riverside
92530,Lake Elsinore,CA,Riverside
92531,Lake Elsinore,CA,Riverside
92532,Lake Elsinore,CA,Riverside
92536,Aguanga,CA,Riverside
92539,Anza,CA,Riverside
92543,Hemet,CA,Riverside
92544,Hemet,CA,Riverside
92545,Hemet,CA,Riverside
92546,Hemet,CA,Riverside
92548,Homeland,CA,Riverside
92549,Idyllwild,CA,Riverside
92551,Moreno Valley,CA,Riverside
92552,Moreno Valley,CA,Riverside
92553,Moreno Valley,CA,Riverside
92554,Moreno Valley,CA,Riverside
92555,Moreno Valley,CA,Riverside
92556,Moreno Valley,CA,Riverside
92557,Moreno Valley,CA,Riverside
92561,Mountain Center,CA,Riverside
92562,Murrieta,CA,Riverside
92563,Murrieta,CA,Riverside
92564,Murrieta,CA,Riverside
92567,Nuevo,CA,Riverside
92570,Perris,CA,Riverside
92571,Perris,CA,Riverside
92572,Perris,CA,Riverside
92581,San Jacinto,CA,Riverside
92582,San Jacinto,CA,Riverside
92583,San Jacinto,CA,Riverside
92584,Menifee,CA,Riverside
92585,Sun City,CA,Riverside
92586,Sun City,CA,Riverside
92587,Sun City,CA,Riverside
92589,Temecula,CA,Riverside
92590,Temecula,CA,Riverside
92591,Temecula,CA,Riverside
92592,Temecula,CA,Riverside
92593,Temecula,CA,Riverside
92595,Wildomar,CA,Riverside
92596,Winchester,CA,Riverside
92599,Perris,CA,Riverside
92602,Irvine,CA,Orange
92603,Irvine,CA,Orange
92604,Irvine,CA,Orange
92605,Huntington Beach,CA,Orange
92606,Irvine,CA,Orange
92607,Laguna Niguel,CA,Orange
92609,El Toro,CA,Orange
92610,Foothill Ranch,CA,Orange
92612,Irvine,CA,Orange
92614,Irvine,CA,Orange
92615,Huntington Beach,CA,Orange
92616,Irvine,CA,Orange
92617,Irvine,CA,Orange
92618,Irvine,CA,Orange
92619,Irvine,CA,Orange
92620,Irvine,CA,Orange
92623,Irvine,CA,Orange
92624,Capistrano Beach,CA,Orange
92625,Corona Del Mar,CA,Orange
92626,Costa Mesa,CA,Orange
92627,Costa Mesa,CA,Orange
92628,Costa Mesa,CA,Orange
92629,Dana Point,CA,Orange
92630,Lake Forest,CA,Orange
92637,Laguna Woods,CA,Orange
92646,Huntington Beach,CA,Orange
92647,Huntington Beach,CA,Orange
92648,Huntington Beach,CA,Orange
92649,Huntington Beach,CA,Orange
92650,East Irvine,CA,Orange
92651,Laguna Beach,CA,Orange
92652,Laguna Beach,CA,Orange
92653,Laguna Hills,CA,Orange
92654,Laguna Hills,CA,Orange
92655,Midway City,CA,Orange
92656,Aliso Viejo,CA,Orange
92657,Newport Coast,CA,Orange
92658,Newport Beach,CA,Orange
92659,Newport Beach,CA,Orange
92660,Newport Beach,CA,Orange
92661,Newport Beach,CA,Orange
92662,Newport Beach,CA,Orange
92663,Newport Beach,CA,Orange
92672,San Clemente,CA,Orange
92673,San Clemente,CA,Orange
92674,San Clemente,CA,Orange
92675,San Juan Capistrano,CA,Orange
92676,Silverado,CA,Orange
92677,Laguna Niguel,CA,Orange
92678,Trabuco Canyon,CA,Orange
92679,Trabuco Canyon,CA,Orange
92683,Westminster,CA,Orange
92684,Westminster,CA,Orange
92685,Westminster,CA,Orange
92688,Rancho Santa Margarita,CA,Orange
92690,Mission Viejo,CA,Orange
92691,Mission Viejo,CA,Orange
92692,Mission Viejo,CA,Orange
92693,San Juan Capistrano,CA,Orange
92694,Ladera Ranch,CA,Orange
92697,Irvine,CA,Orange
92698,Aliso Viejo,CA,Orange
92701,Santa Ana,CA,Orange
92702,Santa Ana,CA,Orange
92703,Santa Ana,CA,Orange
92704,Santa Ana,CA,Orange
92705,Santa Ana,CA,Orange
92706,Santa Ana,CA,Orange
92707,Santa Ana,CA,Orange
92708,Fountain Valley,CA,Orange
92709,Irvine,CA,Orange
92710,Irvine,CA,Orange
92711,Santa Ana,CA,Orange
92712,Santa Ana,CA,Orange
92725,Santa Ana,CA,Orange
92728,Fountain Valley,CA,Orange
92735,Santa Ana,CA,Orange
92780,Tustin,CA,Orange
92781,Tustin,CA,Orange
92782,Tustin,CA,Orange
92799,Santa Ana,CA,Orange
92801,Anaheim,CA,Orange
92802,Anaheim,CA,Orange
92803,Anaheim,CA,Orange
92804,Anaheim,CA,Orange
92805,Anaheim,CA,Orange
92806,Anaheim,CA,Orange
92807,Anaheim,CA,Orange
92808,Anaheim,CA,Orange
92809,Anaheim,CA,Orange
92811,Atwood,CA,Orange
92812,Anaheim,CA,Orange
92814,Anaheim,CA,Orange
92815,Anaheim,CA,Orange
92816,Anaheim,CA,Orange
92817,Anaheim,CA,Orange
92821,Brea,CA,Orange
92822,Brea,CA,Orange
92823,Brea,CA,Orange
92825,Anaheim,CA,Orange
92831,Fullerton,CA,Orange
92832,Fullerton,CA,Orange
92833,Fullerton,CA,Orange
92834,Fullerton,CA,Orange
92835,Fullerton,CA,Orange
92836,Fullerton,CA,Orange
92837,Fullerton,CA,Orange
92838,Fullerton,CA,Orange
92840,Garden Grove,CA,Orange
92841,Garden Grove,CA,Orange
92842,Garden Grove,CA,Orange
92843,Garden Grove,CA,Orange
92844,Garden Grove,CA,Orange
92845,Garden Grove,CA,Orange
92846,Garden Grove,CA,Orange
92850,Anaheim,CA,Orange
92856,Orange,CA,Orange
92857,Orange,CA,Orange
92859,Orange,CA,Orange
92860,Norco,CA,Riverside
92861,Villa Park,CA,Orange
92862,Orange,CA,Orange
92863,Orange,CA,Orange
92864,Orange,CA,Orange
92865,Orange,CA,Orange
92866,Orange,CA,Orange
92867,Orange,CA,Orange
92868,Orange,CA,Orange
92869,Orange,CA,Orange
92870,Placentia,CA,Orange
92871,Placentia,CA,Orange
92877,Corona,CA,Riverside
92878,Corona,CA,Riverside
92879,Corona,CA,Riverside
92880,Corona,CA,Riverside
92881,Corona,CA,Riverside
92882,Corona,CA,Riverside
92883,Corona,CA,Riverside
92885,Yorba Linda,CA,Orange
92886,Yorba Linda,CA,Orange
92887,Yorba Linda,CA,Orange
92899,Anaheim,CA,Orange
93001,Ventura,CA,Ventura
93002,Ventura,CA,Ventura
93003,Ventura,CA,Ventura
93004,Ventura,CA,Ventura
93005,Ventura,CA,Ventura
93006,Ventura,CA,Ventura
93007,Ventura,CA,Ventura
93009,Ventura,CA,Ventura
93010,Camarillo,CA,Ventura
93011,Camarillo,CA,Ventura
93012,Camarillo,CA,Ventura
93013,Carpinteria,CA,Santa Barbara
93014,Carpinteria,CA,Santa Barbara
93015,Fillmore,CA,Ventura
93016,Fillmore,CA,Ventura
93020,Moorpark,CA,Ventura
93021,Moorpark,CA,Ventura
93022,Oak View,CA,Ventura
93023,Ojai,CA,Ventura
93024,Ojai,CA,Ventura
93030,Oxnard,CA,Ventura
93031,Oxnard,CA,Ventura
93032,Oxnard,CA,Ventura
93033,Oxnard,CA,Ventura
93034,Oxnard,CA,Ventura
93035,Oxnard,CA,Ventura
93036,Oxnard,CA,Ventura
93040,Piru,CA,Ventura
93041,Port Hueneme,CA,Ventura
93042,Point Mugu Nawc,CA,Ventura
93043,Port Hueneme Cbc Base,CA,Ventura
93044,Port Hueneme,CA,Ventura
93060,Santa Paula,CA,Ventura
93061,Santa Paula,CA,Ventura
93062,Simi Valley,CA,Ventura
93063,Simi Valley,CA,Ventura
93064,Brandeis,CA,Ventura
93065,Simi Valley,CA,Ventura
93066,Somis,CA,Ventura
93067,Summerland,CA,Santa Barbara
93093,Simi Valley,CA,Ventura
93094,Simi Valley,CA,Ventura
93099,Simi Valley,CA,Ventura
93101,Santa Barbara,CA,Santa Barbara
93102,Santa Barbara,CA,Santa Barbara
93103,Santa Barbara,CA,Santa Barbara
93105,Santa Barbara,CA,Santa Barbara
93106,Santa Barbara,CA,Santa Barbara
93107,Santa Barbara,CA,Santa Barbara
93108,Santa Barbara,CA,Santa Barbara
93109,Santa Barbara,CA,Santa Barbara
93110,Santa Barbara,CA,Santa Barbara
93111,Santa Barbara,CA,Santa Barbara
93116,Goleta,CA,Santa Barbara
93117,Goleta,CA,Santa Barbara
93118,Goleta,CA,Santa Barbara
93120,Santa Barbara,CA,Santa Barbara
93121,Santa Barbara,CA,Santa Barbara
93130,Santa Barbara,CA,Santa Barbara
93140,Santa Barbara,CA,Santa Barbara
93150,Santa Barbara,CA,Santa Barbara
93160,Santa Barbara,CA,Santa Barbara
93190,Santa Barbara,CA,Santa Barbara
93199,Goleta,CA,Santa Barbara
93201,Alpaugh,CA,Tulare
93202,Armona,CA,Kings
93203,Arvin,CA,Kern
93204,Avenal,CA,Kings
93205,Bodfish,CA,Kern
93206,Buttonwillow,CA,Kern
93207,California Hot Springs,CA,Tulare
93208,Camp Nelson,CA,Tulare
93210,Coalinga,CA,Fresno
93212,Corcoran,CA,Kings
93215,Delano,CA,Kern
93216,Delano,CA,Kern
93218,Ducor,CA,Tulare
93219,Earlimart,CA,Tulare
93220,Edison,CA,Kern
93221,Exeter,CA,Tulare
93222,Frazier Park,CA,Kern
93223,Farmersville,CA,Tulare
93224,Fellows,CA,Kern
93225,Frazier Park,CA,Kern
93226,Glennville,CA,Kern
93227,Goshen,CA,Tulare
93230,Hanford,CA,Kings
93232,Hanford,CA,Kings
93234,Huron,CA,Fresno
93235,Ivanhoe,CA,Tulare
93237,Kaweah,CA,Tulare
93238,Kernville,CA,Kern
93239,Kettleman City,CA,Kings
93240,Lake Isabella,CA,Kern
93241,Lamont,CA,Kern
93242,Laton,CA,Fresno
93243,Lebec,CA,Kern
93244,Lemon Cove,CA,Tulare
93245,Lemoore,CA,Kings
93246,Lemoore,CA,Kings
93247,Lindsay,CA,Tulare
93249,Lost Hills,CA,Kern
93250,Mc Farland,CA,Kern
93251,Mc Kittrick,CA,Kern
93252,Maricopa,CA,Kern
93254,New Cuyama,CA,Santa Barbara
93255,Onyx,CA,Kern
93256,Pixley,CA,Tulare
93257,Porterville,CA,Tulare
93258,Porterville,CA,Tulare
93260,Posey,CA,Tulare
93261,Richgrove,CA,Tulare
93262,Sequoia National Park,CA,Tulare
93263,Shafter,CA,Kern
93265,Springville,CA,Tulare
93266,Stratford,CA,Kings
93267,Strathmore,CA,Tulare
93268,Taft,CA,Kern
93270,Terra Bella,CA,Tulare
93271,Three Rivers,CA,Tulare
93272,Tipton,CA,Tulare
93274,Tulare,CA,Tulare
93275,Tulare,CA,Tulare
93276,Tupman,CA,Kern
93277,Visalia,CA,Tulare
93278,Visalia,CA,Tulare
93279,Visalia,CA,Tulare
93280,Wasco,CA,Kern
93282,Waukena,CA,Tulare
93283,Weldon,CA,Kern
93285,Wofford Heights,CA,Kern
93286,Woodlake,CA,Tulare
93287,Woody,CA,Kern
93290,Visalia,CA,Tulare
93291,Visalia,CA,Tulare
93292,Visalia,CA,Tulare
93301,Bakersfield,CA,Kern
93302,Bakersfield,CA,Kern
93303,Bakersfield,CA,Kern
93304,Bakersfield,CA,Kern
93305,Bakersfield,CA,Kern
93306,Bakersfield,CA,Kern
93307,Bakersfield,CA,Kern
93308,Bakersfield,CA,Kern
93309,Bakersfield,CA,Kern
93311,Bakersfield,CA,Kern
93312,Bakersfield,CA,Kern
93313,Bakersfield,CA,Kern
93314,Bakersfield,CA,Kern
93380,Bakersfield,CA,Kern
93381,Bakersfield,CA,Kern
93382,Bakersfield,CA,Kern
93383,Bakersfield,CA,Kern
93384,Bakersfield,CA,Kern
93385,Bakersfield,CA,Kern
93386,Bakersfield,CA,Kern
93387,Bakersfield,CA,Kern
93388,Bakersfield,CA,Kern
93389,Bakersfield,CA,Kern
93390,Bakersfield,CA,Kern
93401,San Luis Obispo,CA,San Luis Obispo
93402,Los Osos,CA,San Luis Obispo
93403,San Luis Obispo,CA,San Luis Obispo
93405,San Luis Obispo,CA,San Luis Obispo
93406,San Luis Obispo,CA,San Luis Obispo
93407,San Luis Obispo,CA,San Luis Obispo
93408,San Luis Obispo,CA,San Luis Obispo
93409,San Luis Obispo,CA,San Luis Obispo
93410,San Luis Obispo,CA,San Luis Obispo
93412,Los Osos,CA,San Luis Obispo
93420,Arroyo Grande,CA,San Luis Obispo
93421,Arroyo Grande,CA,San Luis Obispo
93422,Atascadero,CA,San Luis Obispo
93423,Atascadero,CA,San Luis Obispo
93424,Avila Beach,CA,San Luis Obispo
93426,Bradley,CA,Monterey
93427,Buellton,CA,Santa Barbara
93428,Cambria,CA,San Luis Obispo
93429,Casmalia,CA,Santa Barbara
93430,Cayucos,CA,San Luis Obispo
93432,Creston,CA,San Luis Obispo
93433,Grover Beach,CA,San Luis Obispo
93434,Guadalupe,CA,Santa Barbara
93435,Harmony,CA,San Luis Obispo
93436,Lompoc,CA,Santa Barbara
93437,Lompoc,CA,Santa Barbara
93438,Lompoc,CA,Santa Barbara
93440,Los Alamos,CA,Santa Barbara
93441,Los Olivos,CA,Santa Barbara
93442,Morro Bay,CA,San Luis Obispo
93443,Morro Bay,CA,San Luis Obispo
93444,Nipomo,CA,San Luis Obispo
93445,Oceano,CA,San Luis Obispo
93446,Paso Robles,CA,San Luis Obispo
93447,Paso Robles,CA,San Luis Obispo
93448,Pismo Beach,CA,San Luis Obispo
93449,Pismo Beach,CA,San Luis Obispo
93450,San Ardo,CA,Monterey
93451,San Miguel,CA,San Luis Obispo
93452,San Simeon,CA,San Luis Obispo
93453,Santa Margarita,CA,San Luis Obispo
93454,Santa Maria,CA,Santa Barbara
93455,Santa Maria,CA,Santa Barbara
93456,Santa Maria,CA,Santa Barbara
93457,Santa Maria,CA,Santa Barbara
93458,Santa Maria,CA,Santa Barbara
93460,Santa Ynez,CA,Santa Barbara
93461,Shandon,CA,San Luis Obispo
93463,Solvang,CA,Santa Barbara
93464,Solvang,CA,Santa Barbara
93465,Templeton,CA,San Luis Obispo
93475,Oceano,CA,San Luis Obispo
93483,Grover Beach,CA,San Luis Obispo
93501,Mojave,CA,Kern
93502,Mojave,CA,Kern
93504,California City,CA,Kern
93505,California City,CA,Kern
93510,Acton,CA,Los Angeles
93512,Benton,CA,Mono
93513,Big Pine,CA,Inyo
93514,Bishop,CA,Inyo
93515,Bishop,CA,Inyo
93516,Boron,CA,Kern
93517,Bridgeport,CA,Mono
93518,Caliente,CA,Kern
93519,Cantil,CA,Kern
93522,Darwin,CA,Inyo
93523,Edwards,CA,Kern
93524,Edwards,CA,Kern
93526,Independence,CA,Inyo
93527,Inyokern,CA,Kern
93528,Johannesburg,CA,Kern
93529,June Lake,CA,Mono
93530,Keeler,CA,Inyo
93531,Keene,CA,Kern
93532,Lake Hughes,CA,Los Angeles
93534,Lancaster,CA,Los Angeles
93535,Lancaster,CA,Los Angeles
93536,Lancaster,CA,Los Angeles
93539,Lancaster,CA,Los Angeles
93541,Lee Vining,CA,Mono
93542,Little Lake,CA,Inyo
93543,Littlerock,CA,Los Angeles
93544,Llano,CA,Los Angeles
93545,Lone Pine,CA,Inyo
93546,Mammoth Lakes,CA,Mono
93549,Olancha,CA,Inyo
93550,Palmdale,CA,Los Angeles
93551,Palmdale,CA,Los Angeles
93552,Palmdale,CA,Los Angeles
93553,Pearblossom,CA,Los Angeles
93554,Randsburg,CA,Kern
93555,Ridgecrest,CA,Kern
93556,Ridgecrest,CA,Kern
93558,Red Mountain,CA,San Bernardino
93560,Rosamond,CA,Kern
93561,Tehachapi,CA,Kern
93562,Trona,CA,San Bernardino
93563,Valyermo,CA,Los Angeles
93581,Tehachapi,CA,Kern
93584,Lancaster,CA,Los Angeles
93586,Lancaster,CA,Los Angeles
93590,Palmdale,CA,Los Angeles
93591,Palmdale,CA,Los Angeles
93592,Trona,CA,San Bernardino
93596,Boron,CA,Kern
93599,Palmdale,CA,Los Angeles
93601,Ahwahnee,CA,Madera
93602,Auberry,CA,Fresno
93603,Badger,CA,Tulare
93604,Bass Lake,CA,Madera
93605,Big Creek,CA,Fresno
93606,Biola,CA,Fresno
93607,Burrel,CA,Fresno
93608,Cantua Creek,CA,Fresno
93609,Caruthers,CA,Fresno
93610,Chowchilla,CA,Madera
93611,Clovis,CA,Fresno
93612,Clovis,CA,Fresno
93613,Clovis,CA,Fresno
93614,Coarsegold,CA,Madera
93615,Cutler,CA,Tulare
93616,Del Rey,CA,Fresno
93618,Dinuba,CA,Tulare
93619,Clovis,CA,Fresno
93620,Dos Palos,CA,Merced
93621,Dunlap,CA,Fresno
93622,Firebaugh,CA,Fresno
93623,Fish Camp,CA,Mariposa
93624,Five Points,CA,Fresno
93625,Fowler,CA,Fresno
93626,Friant,CA,Fresno
93627,Helm,CA,Fresno
93628,Hume,CA,Fresno
93630,Kerman,CA,Fresno
93631,Kingsburg,CA,Fresno
93633,Kings Canyon National Pk,CA,Tulare
93634,Lakeshore,CA,Fresno
93635,Los Banos,CA,Merced
93636,Madera,CA,Madera
93637,Madera,CA,Madera
93638,Madera,CA,Madera
93639,Madera,CA,Madera
93640,Mendota,CA,Fresno
93641,Miramonte,CA,Fresno
93642,Mono Hot Springs,CA,Fresno
93643,North Fork,CA,Madera
93644,Oakhurst,CA,Madera
93645,O Neals,CA,Madera
93646,Orange Cove,CA,Fresno
93647,Orosi,CA,Tulare
93648,Parlier,CA,Fresno
93649,Piedra,CA,Fresno
93650,Fresno,CA,Fresno
93651,Prather,CA,Fresno
93652,Raisin City,CA,Fresno
93653,Raymond,CA,Madera
93654,Reedley,CA,Fresno
93656,Riverdale,CA,Fresno
93657,Sanger,CA,Fresno
93660,San Joaquin,CA,Fresno
93661,Santa Rita Park,CA,Merced
93662,Selma,CA,Fresno
93664,Shaver Lake,CA,Fresno
93665,South Dos Palos,CA,Merced
93666,Sultana,CA,Tulare
93667,Tollhouse,CA,Fresno
93668,Tranquillity,CA,Fresno
93669,Wishon,CA,Madera
93670,Yettem,CA,Tulare
93673,Traver,CA,Tulare
93675,Squaw Valley,CA,Fresno
93701,Fresno,CA,Fresno
93702,Fresno,CA,Fresno
93703,Fresno,CA,Fresno
93704,Fresno,CA,Fresno
93705,Fresno,CA,Fresno
93706,Fresno,CA,Fresno
93707,Fresno,CA,Fresno
93708,Fresno,CA,Fresno
93709,Fresno,CA,Fresno
93710,Fresno,CA,Fresno
93711,Fresno,CA,Fresno
93712,Fresno,CA,Fresno
93714,Fresno,CA,Fresno
93715,Fresno,CA,Fresno
93716,Fresno,CA,Fresno
93717,Fresno,CA,Fresno
93718,Fresno,CA,Fresno
93720,Fresno,CA,Fresno
93721,Fresno,CA,Fresno
93722,Fresno,CA,Fresno
93723,Fresno,CA,Fresno
93724,Fresno,CA,Fresno
93725,Fresno,CA,Fresno
93726,Fresno,CA,Fresno
93727,Fresno,CA,Fresno
93728,Fresno,CA,Fresno
93729,Fresno,CA,Fresno
93730,Fresno,CA,Fresno
93740,Fresno,CA,Fresno
93741,Fresno,CA,Fresno
93744,Fresno,CA,Fresno
93745,Fresno,CA,Fresno
93747,Fresno,CA,Fresno
93750,Fresno,CA,Fresno
93755,Fresno,CA,Fresno
93760,Fresno,CA,Fresno
93761,Fresno,CA,Fresno
93764,Fresno,CA,Fresno
93765,Fresno,CA,Fresno
93771,Fresno,CA,Fresno
93772,Fresno,CA,Fresno
93773,Fresno,CA,Fresno
93774,Fresno,CA,Fresno
93775,Fresno,CA,Fresno
93776,Fresno,CA,Fresno
93777,Fresno,CA,Fresno
93778,Fresno,CA,Fresno
93779,Fresno,CA,Fresno
93780,Fresno,CA,Fresno
93784,Fresno,CA,Fresno
93786,Fresno,CA,Fresno
93790,Fresno,CA,Fresno
93791,Fresno,CA,Fresno
93792,Fresno,CA,Fresno
93793,Fresno,CA,Fresno
93794,Fresno,CA,Fresno
93844,Fresno,CA,Fresno
93888,Fresno,CA,Fresno
93901,Salinas,CA,Monterey
93902,Salinas,CA,Monterey
93905,Salinas,CA,Monterey
93906,Salinas,CA,Monterey
93907,Salinas,CA,Monterey
93908,Salinas,CA,Monterey
93912,Salinas,CA,Monterey
93915,Salinas,CA,Monterey
93920,Big Sur,CA,Monterey
93921,Carmel By The Sea,CA,Monterey
93922,Carmel,CA,Monterey
93923,Carmel,CA,Monterey
93924,Carmel Valley,CA,Monterey
93925,Chualar,CA,Monterey
93926,Gonzales,CA,Monterey
93927,Greenfield,CA,Monterey
93928,Jolon,CA,Monterey
93930,King City,CA,Monterey
93932,Lockwood,CA,Monterey
93933,Marina,CA,Monterey
93940,Monterey,CA,Monterey
93942,Monterey,CA,Monterey
93943,Monterey,CA,Monterey
93944,Monterey,CA,Monterey
93950,Pacific Grove,CA,Monterey
93953,Pebble Beach,CA,Monterey
93954,San Lucas,CA,Monterey
93955,Seaside,CA,Monterey
93960,Soledad,CA,Monterey
93962,Spreckels,CA,Monterey
94002,Belmont,CA,San Mateo
94005,Brisbane,CA,San Mateo
94010,Burlingame,CA,San Mateo
94011,Burlingame,CA,San Mateo
94013,Daly City,CA,San Mateo
94014,Daly City,CA,San Mateo
94015,Daly City,CA,San Mateo
94016,Daly City,CA,San Mateo
94017,Daly City,CA,San Mateo
94018,El Granada,CA,San Mateo
94019,Half Moon Bay,CA,San Mateo
94020,La Honda,CA,San Mateo
94021,Loma Mar,CA,San Mateo
94022,Los Altos,CA,Santa Clara
94023,Los Altos,CA,Santa Clara
94024,Los Altos,CA,Santa Clara
94025,Menlo Park,CA,San Mateo
94026,Menlo Park,CA,San Mateo
94027,Atherton,CA,San Mateo
94028,Portola Valley,CA,San Mateo
94030,Millbrae,CA,San Mateo
94035,Mountain View,CA,Santa Clara
94037,Montara,CA,San Mateo
94038,Moss Beach,CA,San Mateo
94039,Mountain View,CA,Santa Clara
94040,Mountain View,CA,Santa Clara
94041,Mountain View,CA,Santa Clara
94042,Mountain View,CA,Santa Clara
94043,Mountain View,CA,Santa Clara
94044,Pacifica,CA,San Mateo
94060,Pescadero,CA,San Mateo
94061,Redwood City,CA,San Mateo
94062,Redwood City,CA,San Mateo
94063,Redwood City,CA,San Mateo
94064,Redwood City,CA,San Mateo
94065,Redwood City,CA,San Mateo
94066,San Bruno,CA,San Mateo
94070,San Carlos,CA,San Mateo
94074,San Gregorio,CA,San Mateo
94080,South San Francisco,CA,San Mateo
94083,South San Francisco,CA,San Mateo
94085,Sunnyvale,CA,Santa Clara
94086,Sunnyvale,CA,Santa Clara
94087,Sunnyvale,CA,Santa Clara
94088,Sunnyvale,CA,Santa Clara
94089,Sunnyvale,CA,Santa Clara
94096,San Bruno,CA,San Mateo
94098,San Bruno,CA,San Mateo
94101,San Francisco,CA,San Francisco
94102,San Francisco,CA,San Francisco
94103,San Francisco,CA,San Francisco
94104,San Francisco,CA,San Francisco
94105,San Francisco,CA,San Francisco
94106,San Francisco,CA,San Francisco
94107,San Francisco,CA,San Francisco
94108,San Francisco,CA,San Francisco
94109,San Francisco,CA,San Francisco
94110,San Francisco,CA,San Francisco
94111,San Francisco,CA,San Francisco
94112,San Francisco,CA,San Francisco
94114,San Francisco,CA,San Francisco
94115,San Francisco,CA,San Francisco
94116,San Francisco,CA,San Francisco
94117,San Francisco,CA,San Francisco
94118,San Francisco,CA,San Francisco
94119,San Francisco,CA,San Francisco
94120,San Francisco,CA,San Francisco
94121,San Francisco,CA,San Francisco
94122,San Francisco,CA,San Francisco
94123,San Francisco,CA,San Francisco
94124,San Francisco,CA,San Francisco
94125,San Francisco,CA,San Francisco
94126,San Francisco,CA,San Francisco
94127,San Francisco,CA,San Francisco
94128,San Francisco,CA,San Mateo
94129,San Francisco,CA,San Francisco
94130,San Francisco,CA,San Francisco
94131,San Francisco,CA,San Francisco
94132,San Francisco,CA,San Francisco
94133,San Francisco,CA,San Francisco
94134,San Francisco,CA,San Francisco
94135,San Francisco,CA,San Francisco
94136,San Francisco,CA,San Francisco
94137,San Francisco,CA,San Francisco
94138,San Francisco,CA,San Francisco
94139,San Francisco,CA,San Francisco
94140,San Francisco,CA,San Francisco
94141,San Francisco,CA,San Francisco
94142,San Francisco,CA,San Francisco
94143,San Francisco,CA,San Francisco
94144,San Francisco,CA,San Francisco
94145,San Francisco,CA,San Francisco
94146,San Francisco,CA,San Francisco
94147,San Francisco,CA,San Francisco
94150,San Francisco,CA,San Francisco
94151,San Francisco,CA,San Francisco
94152,San Francisco,CA,San Francisco
94153,San Francisco,CA,San Francisco
94154,San Francisco,CA,San Francisco
94155,San Francisco,CA,San Francisco
94156,San Francisco,CA,San Francisco
94157,San Francisco,CA,San Francisco
94158,San Francisco,CA,San Francisco
94159,San Francisco,CA,San Francisco
94160,San Francisco,CA,San Francisco
94161,San Francisco,CA,San Francisco
94162,San Francisco,CA,San Francisco
94163,San Francisco,CA,San Francisco
94164,San Francisco,CA,San Francisco
94165,San Francisco,CA,San Francisco
94166,San Francisco,CA,San Francisco
94167,San Francisco,CA,San Francisco
94168,San Francisco,CA,San Francisco
94169,San Francisco,CA,San Francisco
94170,San Francisco,CA,San Francisco
94171,San Francisco,CA,San Francisco
94172,San Francisco,CA,San Francisco
94175,San Francisco,CA,San Francisco
94177,San Francisco,CA,San Francisco
94188,San Francisco,CA,San Francisco
94199,San Francisco,CA,San Francisco
94203,Sacramento,CA,Sacramento
94204,Sacramento,CA,Sacramento
94205,Sacramento,CA,Sacramento
94206,Sacramento,CA,Sacramento
94207,Sacramento,CA,Sacramento
94208,Sacramento,CA,Sacramento
94209,Sacramento,CA,Sacramento
94211,Sacramento,CA,Sacramento
94229,Sacramento,CA,Sacramento
94230,Sacramento,CA,Sacramento
94232,Sacramento,CA,Sacramento
94234,Sacramento,CA,Sacramento
94235,Sacramento,CA,Sacramento
94236,Sacramento,CA,Sacramento
94237,Sacramento,CA,Sacramento
94239,Sacramento,CA,Sacramento
94240,Sacramento,CA,Sacramento
94244,Sacramento,CA,Sacramento
94245,Sacramento,CA,Sacramento
94246,Sacramento,CA,Sacramento
94247,Sacramento,CA,Sacramento
94248,Sacramento,CA,Sacramento
94249,Sacramento,CA,Sacramento
94250,Sacramento,CA,Sacramento
94252,Sacramento,CA,Sacramento
94254,Sacramento,CA,Sacramento
94256,Sacramento,CA,Sacramento
94257,Sacramento,CA,Sacramento
94258,Sacramento,CA,Sacramento
94259,Sacramento,CA,Sacramento
94261,Sacramento,CA,Sacramento
94262,Sacramento,CA,Sacramento
94263,Sacramento,CA,Sacramento
94267,Sacramento,CA,Sacramento
94268,Sacramento,CA,Sacramento
94269,Sacramento,CA,Sacramento
94271,Sacramento,CA,Sacramento
94273,Sacramento,CA,Sacramento
94274,Sacramento,CA,Sacramento
94277,Sacramento,CA,Sacramento
94278,Sacramento,CA,Sacramento
94279,Sacramento,CA,Sacramento
94280,Sacramento,CA,Sacramento
94282,Sacramento,CA,Sacramento
94283,Sacramento,CA,Sacramento
94284,Sacramento,CA,Sacramento
94285,Sacramento,CA,Sacramento
94286,Sacramento,CA,Sacramento
94287,Sacramento,CA,Sacramento
94288,Sacramento,CA,Sacramento
94289,Sacramento,CA,Sacramento
94290,Sacramento,CA,Sacramento
94291,Sacramento,CA,Sacramento
94293,Sacramento,CA,Sacramento
94294,Sacramento,CA,Sacramento
94295,Sacramento,CA,Sacramento
94296,Sacramento,CA,Sacramento
94297,Sacramento,CA,Sacramento
94298,Sacramento,CA,Sacramento
94299,Sacramento,CA,Sacramento
94301,Palo Alto,CA,Santa Clara
94302,Palo Alto,CA,Santa Clara
94303,Palo Alto,CA,Santa Clara
94304,Palo Alto,CA,Santa Clara
94305,Stanford,CA,Santa Clara
94306,Palo Alto,CA,Santa Clara
94309,Palo Alto,CA,Santa Clara
94401,San Mateo,CA,San Mateo
94402,San Mateo,CA,San Mateo
94403,San Mateo,CA,San Mateo
94404,San Mateo,CA,San Mateo
94497,San Mateo,CA,San Mateo
94501,Alameda,CA,Alameda
94502,Alameda,CA,Alameda
94503,American Canyon,CA,Napa
94506,Danville,CA,Contra Costa
94507,Alamo,CA,Contra Costa
94508,Angwin,CA,Napa
94509,Antioch,CA,Contra Costa
94510,Benicia,CA,Solano
94511,Bethel Island,CA,Contra Costa
94512,Birds Landing,CA,Solano
94513,Brentwood,CA,Contra Costa
94514,Byron,CA,Contra Costa
94515,Calistoga,CA,Napa
94516,Canyon,CA,Contra Costa
94517,Clayton,CA,Contra Costa
94518,Concord,CA,Contra Costa
94519,Concord,CA,Contra Costa
94520,Concord,CA,Contra Costa
94521,Concord,CA,Contra Costa
94522,Concord,CA,Contra Costa
94523,Pleasant Hill,CA,Contra Costa
94524,Concord,CA,Contra Costa
94525,Crockett,CA,Contra Costa
94526,Danville,CA,Contra Costa
94527,Concord,CA,Contra Costa
94528,Diablo,CA,Contra Costa
94529,Concord,CA,Contra Costa
94530,El Cerrito,CA,Contra Costa
94531,Antioch,CA,Contra Costa
94533,Fairfield,CA,Solano
94534,Fairfield,CA,Solano
94535,Travis Afb,CA,Solano
94536,Fremont,CA,Alameda
94537,Fremont,CA,Alameda
94538,Fremont,CA,Alameda
94539,Fremont,CA,Alameda
94540,Hayward,CA,Alameda
94541,Hayward,CA,Alameda
94542,Hayward,CA,Alameda
94543,Hayward,CA,Alameda
94544,Hayward,CA,Alameda
94545,Hayward,CA,Alameda
94546,Castro Valley,CA,Alameda
94547,Hercules,CA,Contra Costa
94548,Knightsen,CA,Contra Costa
94549,Lafayette,CA,Contra Costa
94550,Livermore,CA,Alameda
94551,Livermore,CA,Alameda
94552,Castro Valley,CA,Alameda
94553,Martinez,CA,Contra Costa
94555,Fremont,CA,Alameda
94556,Moraga,CA,Contra Costa
94557,Hayward,CA,Alameda
94558,Napa,CA,Napa
94559,Napa,CA,Napa
94560,Newark,CA,Alameda
94561,Oakley,CA,Contra Costa
94562,Oakville,CA,Napa
94563,Orinda,CA,Contra Costa
94564,Pinole,CA,Contra Costa
94565,Pittsburg,CA,Contra Costa
94566,Pleasanton,CA,Alameda
94567,Pope Valley,CA,Napa
94568,Dublin,CA,Alameda
94569,Port Costa,CA,Contra Costa
94570,Moraga,CA,Contra Costa
94571,Rio Vista,CA,Solano
94572,Rodeo,CA,Contra Costa
94573,Rutherford,CA,Napa
94574,Saint Helena,CA,Napa
94575,Moraga,CA,Contra Costa
94576,Deer Park,CA,Napa
94577,San Leandro,CA,Alameda
94578,San Leandro,CA,Alameda
94579,San Leandro,CA,Alameda
94580,San Lorenzo,CA,Alameda
94581,Napa,CA,Napa
94582,San Ramon,CA,Contra Costa
94583,San Ramon,CA,Contra Costa
94585,Suisun City,CA,Solano
94586,Sunol,CA,Alameda
94587,Union City,CA,Alameda
94588,Pleasanton,CA,Alameda
94589,Vallejo,CA,Solano
94590,Vallejo,CA,Solano
94591,Vallejo,CA,Solano
94592,Vallejo,CA,Solano
94595,Walnut Creek,CA,Contra Costa
94596,Walnut Creek,CA,Contra Costa
94597,Walnut Creek,CA,Contra Costa
94598,Walnut Creek,CA,Contra Costa
94599,Yountville,CA,Napa
94601,Oakland,CA,Alameda
94602,Oakland,CA,Alameda
94603,Oakland,CA,Alameda
94604,Oakland,CA,Alameda
94605,Oakland,CA,Alameda
94606,Oakland,CA,Alameda
94607,Oakland,CA,Alameda
94608,Emeryville,CA,Alameda
94609,Oakland,CA,Alameda
94610,Oakland,CA,Alameda
94611,Oakland,CA,Alameda
94612,Oakland,CA,Alameda
94613,Oakland,CA,Alameda
94614,Oakland,CA,Alameda
94615,Oakland,CA,Alameda
94617,Oakland,CA,Alameda
94618,Oakland,CA,Alameda
94619,Oakland,CA,Alameda
94620,Piedmont,CA,Alameda
94621,Oakland,CA,Alameda
94622,Oakland,CA,Alameda
94623,Oakland,CA,Alameda
94624,Oakland,CA,Alameda
94625,Oakland,CA,Alameda
94649,Oakland,CA,Alameda
94659,Oakland,CA,Alameda
94660,Oakland,CA,Alameda
94661,Oakland,CA,Alameda
94662,Emeryville,CA,Alameda
94666,Oakland,CA,Alameda
94701,Berkeley,CA,Alameda
94702,Berkeley,CA,Alameda
94703,Berkeley,CA,Alameda
94704,Berkeley,CA,Alameda
94705,Berkeley,CA,Alameda
94706,Albany,CA,Alameda
94707,Berkeley,CA,Alameda
94708,Berkeley,CA,Alameda
94709,Berkeley,CA,Alameda
94710,Berkeley,CA,Alameda
94712,Berkeley,CA,Alameda
94720,Berkeley,CA,Alameda
94801,Richmond,CA,Contra Costa
94802,Richmond,CA,Contra Costa
94803,El Sobrante,CA,Contra Costa
94804,Richmond,CA,Contra Costa
94805,Richmond,CA,Contra Costa
94806,San Pablo,CA,Contra Costa
94807,Richmond,CA,Contra Costa
94808,Richmond,CA,Contra Costa
94820,El Sobrante,CA,Contra Costa
94850,Richmond,CA,Contra Costa
94901,San Rafael,CA,Marin
94903,San Rafael,CA,Marin
94904,Greenbrae,CA,Marin
94912,San Rafael,CA,Marin
94913,San Rafael,CA,Marin
94914,Kentfield,CA,Marin
94915,San Rafael,CA,Marin
94920,Belvedere Tiburon,CA,Marin
94922,Bodega,CA,Sonoma
94923,Bodega Bay,CA,Sonoma
94924,Bolinas,CA,Marin
94925,Corte Madera,CA,Marin
94926,Cotati,CA,Sonoma
94927,Rohnert Park,CA,Sonoma
94928,Rohnert Park,CA,Sonoma
94929,Dillon Beach,CA,Marin
94930,Fairfax,CA,Marin
94931,Cotati,CA,Sonoma
94933,Forest Knolls,CA,Marin
94937,Inverness,CA,Marin
94938,Lagunitas,CA,Marin
94939,Larkspur,CA,Marin
94940,Marshall,CA,Marin
94941,Mill Valley,CA,Marin
94942,Mill Valley,CA,Marin
94945,Novato,CA,Marin
94946,Nicasio,CA,Marin
94947,Novato,CA,Marin
94948,Novato,CA,Marin
94949,Novato,CA,Marin
94950,Olema,CA,Marin
94951,Penngrove,CA,Sonoma
94952,Petaluma,CA,Sonoma
94953,Petaluma,CA,Sonoma
94954,Petaluma,CA,Sonoma
94955,Petaluma,CA,Sonoma
94956,Point Reyes Station,CA,Marin
94957,Ross,CA,Marin
94960,San Anselmo,CA,Marin
94963,San Geronimo,CA,Marin
94964,San Quentin,CA,Marin
94965,Sausalito,CA,Marin
94966,Sausalito,CA,Marin
94970,Stinson Beach,CA,Marin
94971,Tomales,CA,Marin
94972,Valley Ford,CA,Sonoma
94973,Woodacre,CA,Marin
94974,San Quentin,CA,Marin
94975,Petaluma,CA,Sonoma
94976,Corte Madera,CA,Marin
94977,Larkspur,CA,Marin
94978,Fairfax,CA,Marin
94979,San Anselmo,CA,Marin
94998,Novato,CA,Marin
94999,Petaluma,CA,Sonoma
95001,Aptos,CA,Santa Cruz
95002,Alviso,CA,Santa Clara
95003,Aptos,CA,Santa Cruz
95004,Aromas,CA,Monterey
95005,Ben Lomond,CA,Santa Cruz
95006,Boulder Creek,CA,Santa Cruz
95007,Brookdale,CA,Santa Cruz
95008,Campbell,CA,Santa Clara
95009,Campbell,CA,Santa Clara
95010,Capitola,CA,Santa Cruz
95011,Campbell,CA,Santa Clara
95012,Castroville,CA,Monterey
95013,Coyote,CA,Santa Clara
95014,Cupertino,CA,Santa Clara
95015,Cupertino,CA,Santa Clara
95017,Davenport,CA,Santa Cruz
95018,Felton,CA,Santa Cruz
95019,Freedom,CA,Santa Cruz
95020,Gilroy,CA,Santa Clara
95021,Gilroy,CA,Santa Clara
95023,Hollister,CA,San Benito
95024,Hollister,CA,San Benito
95026,Holy City,CA,Santa Clara
95030,Los Gatos,CA,Santa Clara
95031,Los Gatos,CA,Santa Clara
95032,Los Gatos,CA,Santa Clara
95033,Los Gatos,CA,Santa Cruz
95035,Milpitas,CA,Santa Clara
95036,Milpitas,CA,Santa Clara
95037,Morgan Hill,CA,Santa Clara
95038,Morgan Hill,CA,Santa Clara
95039,Moss Landing,CA,Monterey
95041,Mount Hermon,CA,Santa Cruz
95042,New Almaden,CA,Santa Clara
95043,Paicines,CA,San Benito
95044,Redwood Estates,CA,Santa Clara
95045,San Juan Bautista,CA,San Benito
95046,San Martin,CA,Santa Clara
95050,Santa Clara,CA,Santa Clara
95051,Santa Clara,CA,Santa Clara
95052,Santa Clara,CA,Santa Clara
95053,Santa Clara,CA,Santa Clara
95054,Santa Clara,CA,Santa Clara
95055,Santa Clara,CA,Santa Clara
95056,Santa Clara,CA,Santa Clara
95060,Santa Cruz,CA,Santa Cruz
95061,Santa Cruz,CA,Santa Cruz
95062,Santa Cruz,CA,Santa Cruz
95063,Santa Cruz,CA,Santa Cruz
95064,Santa Cruz,CA,Santa Cruz
95065,Santa Cruz,CA,Santa Cruz
95066,Scotts Valley,CA,Santa Cruz
95067,Scotts Valley,CA,Santa Cruz
95070,Saratoga,CA,Santa Clara
95071,Saratoga,CA,Santa Clara
95073,Soquel,CA,Santa Cruz
95075,Tres Pinos,CA,San Benito
95076,Watsonville,CA,Santa Cruz
95077,Watsonville,CA,Santa Cruz
95101,San Jose,CA,Santa Clara
95103,San Jose,CA,Santa Clara
95106,San Jose,CA,Santa Clara
95108,San Jose,CA,Santa Clara
95109,San Jose,CA,Santa Clara
95110,San Jose,CA,Santa Clara
95111,San Jose,CA,Santa Clara
95112,San Jose,CA,Santa Clara
95113,San Jose,CA,Santa Clara
95115,San Jose,CA,Santa Clara
95116,San Jose,CA,Santa Clara
95117,San Jose,CA,Santa Clara
95118,San Jose,CA,Santa Clara
95119,San Jose,CA,Santa Clara
95120,San Jose,CA,Santa Clara
95121,San Jose,CA,Santa Clara
95122,San Jose,CA,Santa Clara
95123,San Jose,CA,Santa Clara
95124,San Jose,CA,Santa Clara
95125,San Jose,CA,Santa Clara
95126,San Jose,CA,Santa Clara
95127,San Jose,CA,Santa Clara
95128,San Jose,CA,Santa Clara
95129,San Jose,CA,Santa Clara
95130,San Jose,CA,Santa Clara
95131,San Jose,CA,Santa Clara
95132,San Jose,CA,Santa Clara
95133,San Jose,CA,Santa Clara
95134,San Jose,CA,Santa Clara
95135,San Jose,CA,Santa Clara
95136,San Jose,CA,Santa Clara
95138,San Jose,CA,Santa Clara
95139,San Jose,CA,Santa Clara
95140,Mount Hamilton,CA,Santa Clara
95141,San Jose,CA,Santa Clara
95148,San Jose,CA,Santa Clara
95150,San Jose,CA,Santa Clara
95151,San Jose,CA,Santa Clara
95152,San Jose,CA,Santa Clara
95153,San Jose,CA,Santa Clara
95154,San Jose,CA,Santa Clara
95155,San Jose,CA,Santa Clara
95156,San Jose,CA,Santa Clara
95157,San Jose,CA,Santa Clara
95158,San Jose,CA,Santa Clara
95159,San Jose,CA,Santa Clara
95160,San Jose,CA,Santa Clara
95161,San Jose,CA,Santa Clara
95164,San Jose,CA,Santa Clara
95170,San Jose,CA,Santa Clara
95172,San Jose,CA,Santa Clara
95173,San Jose,CA,Santa Clara
95190,San Jose,CA,Santa Clara
95191,San Jose,CA,Santa Clara
95192,San Jose,CA,Santa Clara
95193,San Jose,CA,Santa Clara
95194,San Jose,CA,Santa Clara
95196,San Jose,CA,Santa Clara
95201,Stockton,CA,San Joaquin
95202,Stockton,CA,San Joaquin
95203,Stockton,CA,San Joaquin
95204,Stockton,CA,San Joaquin
95205,Stockton,CA,San Joaquin
95206,Stockton,CA,San Joaquin
95207,Stockton,CA,San Joaquin
95208,Stockton,CA,San Joaquin
95209,Stockton,CA,San Joaquin
95210,Stockton,CA,San Joaquin
95211,Stockton,CA,San Joaquin
95212,Stockton,CA,San Joaquin
95213,Stockton,CA,San Joaquin
95215,Stockton,CA,San Joaquin
95219,Stockton,CA,San Joaquin
95220,Acampo,CA,San Joaquin
95221,Altaville,CA,Calaveras
95222,Angels Camp,CA,Calaveras
95223,Arnold,CA,Calaveras
95224,Avery,CA,Calaveras
95225,Burson,CA,Calaveras
95226,Campo Seco,CA,Calaveras
95227,Clements,CA,San Joaquin
95228,Copperopolis,CA,Calaveras
95229,Douglas Flat,CA,Calaveras
95230,Farmington,CA,San Joaquin
95231,French Camp,CA,San Joaquin
95232,Glencoe,CA,Calaveras
95233,Hathaway Pines,CA,Calaveras
95234,Holt,CA,San Joaquin
95236,Linden,CA,San Joaquin
95237,Lockeford,CA,San Joaquin
95240,Lodi,CA,San Joaquin
95241,Lodi,CA,San Joaquin
95242,Lodi,CA,San Joaquin
95245,Mokelumne Hill,CA,Calaveras
95246,Mountain Ranch,CA,Calaveras
95247,Murphys,CA,Calaveras
95248,Rail Road Flat,CA,Calaveras
95249,San Andreas,CA,Calaveras
95250,Sheep Ranch,CA,Calaveras
95251,Vallecito,CA,Calaveras
95252,Valley Springs,CA,Calaveras
95253,Victor,CA,San Joaquin
95254,Wallace,CA,Calaveras
95255,West Point,CA,Calaveras
95257,Wilseyville,CA,Calaveras
95258,Woodbridge,CA,San Joaquin
95267,Stockton,CA,San Joaquin
95269,Stockton,CA,San Joaquin
95296,Stockton,CA,San Joaquin
95297,Stockton,CA,San Joaquin
95301,Atwater,CA,Merced
95303,Ballico,CA,Merced
95304,Tracy,CA,San Joaquin
95305,Big Oak Flat,CA,Tuolumne
95306,Catheys Valley,CA,Mariposa
95307,Ceres,CA,Stanislaus
95309,Chinese Camp,CA,Tuolumne
95310,Columbia,CA,Tuolumne
95311,Coulterville,CA,Mariposa
95312,Cressey,CA,Merced
95313,Crows Landing,CA,Stanislaus
95314,Dardanelle,CA,Tuolumne
95315,Delhi,CA,Merced
95316,Denair,CA,Stanislaus
95317,El Nido,CA,Merced
95318,El Portal,CA,Mariposa
95319,Empire,CA,Stanislaus
95320,Escalon,CA,San Joaquin
95321,Groveland,CA,Tuolumne
95322,Gustine,CA,Merced
95323,Hickman,CA,Stanislaus
95324,Hilmar,CA,Merced
95325,Hornitos,CA,Mariposa
95326,Hughson,CA,Stanislaus
95327,Jamestown,CA,Tuolumne
95328,Keyes,CA,Stanislaus
95329,La Grange,CA,Stanislaus
95330,Lathrop,CA,San Joaquin
95333,Le Grand,CA,Merced
95334,Livingston,CA,Merced
95335,Long Barn,CA,Tuolumne
95336,Manteca,CA,San Joaquin
95337,Manteca,CA,San Joaquin
95338,Mariposa,CA,Mariposa
95340,Merced,CA,Merced
95341,Merced,CA,Merced
95343,Merced,CA,Merced
95344,Merced,CA,Merced
95345,Midpines,CA,Mariposa
95346,Mi Wuk Village,CA,Tuolumne
95347,Moccasin,CA,Tuolumne
95348,Merced,CA,Merced
95350,Modesto,CA,Stanislaus
95351,Modesto,CA,Stanislaus
95352,Modesto,CA,Stanislaus
95353,Modesto,CA,Stanislaus
95354,Modesto,CA,Stanislaus
95355,Modesto,CA,Stanislaus
95356,Modesto,CA,Stanislaus
95357,Modesto,CA,Stanislaus
95358,Modesto,CA,Stanislaus
95360,Newman,CA,Stanislaus
95361,Oakdale,CA,Stanislaus
95363,Patterson,CA,Stanislaus
95364,Pinecrest,CA,Tuolumne
95365,Planada,CA,Merced
95366,Ripon,CA,San Joaquin
95367,Riverbank,CA,Stanislaus
95368,Salida,CA,Stanislaus
95369,Snelling,CA,Merced
95370,Sonora,CA,Tuolumne
95372,Soulsbyville,CA,Tuolumne
95373,Standard,CA,Tuolumne
95374,Stevinson,CA,Merced
95375,Strawberry,CA,Tuolumne
95376,Tracy,CA,San Joaquin
95377,Tracy,CA,San Joaquin
95378,Tracy,CA,San Joaquin
95379,Tuolumne,CA,Tuolumne
95380,Turlock,CA,Stanislaus
95381,Turlock,CA,Stanislaus
95382,Turlock,CA,Stanislaus
95383,Twain Harte,CA,Tuolumne
95385,Vernalis,CA,San Joaquin
95386,Waterford,CA,Stanislaus
95387,Westley,CA,Stanislaus
95388,Winton,CA,Merced
95389,Yosemite National Park,CA,Mariposa
95391,Tracy,CA,San Joaquin
95397,Modesto,CA,Stanislaus
95401,Santa Rosa,CA,Sonoma
95402,Santa Rosa,CA,Sonoma
95403,Santa Rosa,CA,Sonoma
95404,Santa Rosa,CA,Sonoma
95405,Santa Rosa,CA,Sonoma
95406,Santa Rosa,CA,Sonoma
95407,Santa Rosa,CA,Sonoma
95408,Santa Rosa,CA,Sonoma
95409,Santa Rosa,CA,Sonoma
95410,Albion,CA,Mendocino
95412,Annapolis,CA,Sonoma
95415,Boonville,CA,Mendocino
95416,Boyes Hot Springs,CA,Sonoma
95417,Branscomb,CA,Mendocino
95418,Calpella,CA,Mendocino
95419,Camp Meeker,CA,Sonoma
95420,Caspar,CA,Mendocino
95421,Cazadero,CA,Sonoma
95422,Clearlake,CA,Lake
95423,Clearlake Oaks,CA,Lake
95424,Clearlake Park,CA,Lake
95425,Cloverdale,CA,Sonoma
95426,Cobb,CA,Lake
95427,Comptche,CA,Mendocino
95428,Covelo,CA,Mendocino
95429,Dos Rios,CA,Mendocino
95430,Duncans Mills,CA,Sonoma
95431,Eldridge,CA,Sonoma
95432,Elk,CA,Mendocino
95433,El Verano,CA,Sonoma
95435,Finley,CA,Lake
95436,Forestville,CA,Sonoma
95437,Fort Bragg,CA,Mendocino
95439,Fulton,CA,Sonoma
95441,Geyserville,CA,Sonoma
95442,Glen Ellen,CA,Sonoma
95443,Glenhaven,CA,Lake
95444,Graton,CA,Sonoma
95445,Gualala,CA,Mendocino
95446,Guerneville,CA,Sonoma
95448,Healdsburg,CA,Sonoma
95449,Hopland,CA,Mendocino
95450,Jenner,CA,Sonoma
95451,Kelseyville,CA,Lake
95452,Kenwood,CA,Sonoma
95453,Lakeport,CA,Lake
95454,Laytonville,CA,Mendocino
95456,Littleriver,CA,Mendocino
95457,Lower Lake,CA,Lake
95458,Lucerne,CA,Lake
95459,Manchester,CA,Mendocino
95460,Mendocino,CA,Mendocino
95461,Middletown,CA,Lake
95462,Monte Rio,CA,Sonoma
95463,Navarro,CA,Mendocino
95464,Nice,CA,Lake
95465,Occidental,CA,Sonoma
95466,Philo,CA,Mendocino
95467,Hidden Valley Lake,CA,Lake
95468,Point Arena,CA,Mendocino
95469,Potter Valley,CA,Mendocino
95470,Redwood Valley,CA,Mendocino
95471,Rio Nido,CA,Sonoma
95472,Sebastopol,CA,Sonoma
95473,Sebastopol,CA,Sonoma
95476,Sonoma,CA,Sonoma
95480,Stewarts Point,CA,Sonoma
95481,Talmage,CA,Mendocino
95482,Ukiah,CA,Mendocino
95485,Upper Lake,CA,Lake
95486,Villa Grande,CA,Sonoma
95487,Vineburg,CA,Sonoma
95488,Westport,CA,Mendocino
95490,Willits,CA,Mendocino
95492,Windsor,CA,Sonoma
95493,Witter Springs,CA,Lake
95494,Yorkville,CA,Mendocino
95497,The Sea Ranch,CA,Sonoma
95501,Eureka,CA,Humboldt
95502,Eureka,CA,Humboldt
95503,Eureka,CA,Humboldt
95511,Alderpoint,CA,Humboldt
95514,Blocksburg,CA,Humboldt
95518,Arcata,CA,Humboldt
95519,Mckinleyville,CA,Humboldt
95521,Arcata,CA,Humboldt
95524,Bayside,CA,Humboldt
95525,Blue Lake,CA,Humboldt
95526,Bridgeville,CA,Humboldt
95527,Burnt Ranch,CA,Trinity
95528,Carlotta,CA,Humboldt
95531,Crescent City,CA,Del Norte
95532,Crescent City,CA,Del Norte
95534,Cutten,CA,Humboldt
95536,Ferndale,CA,Humboldt
95537,Fields Landing,CA,Humboldt
95538,Fort Dick,CA,Del Norte
95540,Fortuna,CA,Humboldt
95542,Garberville,CA,Humboldt
95543,Gasquet,CA,Del Norte
95545,Honeydew,CA,Humboldt
95546,Hoopa,CA,Humboldt
95547,Hydesville,CA,Humboldt
95548,Klamath,CA,Del Norte
95549,Kneeland,CA,Humboldt
95550,Korbel,CA,Humboldt
95551,Loleta,CA,Humboldt
95552,Mad River,CA,Trinity
95553,Miranda,CA,Humboldt
95554,Myers Flat,CA,Humboldt
95555,Orick,CA,Humboldt
95556,Orleans,CA,Humboldt
95558,Petrolia,CA,Humboldt
95559,Phillipsville,CA,Humboldt
95560,Redway,CA,Humboldt
95562,Rio Dell,CA,Humboldt
95563,Salyer,CA,Trinity
95564,Samoa,CA,Humboldt
95565,Scotia,CA,Humboldt
95567,Smith River,CA,Del Norte
95568,Somes Bar,CA,Siskiyou
95569,Redcrest,CA,Humboldt
95570,Trinidad,CA,Humboldt
95571,Weott,CA,Humboldt
95573,Willow Creek,CA,Humboldt
95585,Leggett,CA,Mendocino
95587,Piercy,CA,Mendocino
95589,Whitethorn,CA,Humboldt
95595,Zenia,CA,Trinity
95601,Amador City,CA,Amador
95602,Auburn,CA,Placer
95603,Auburn,CA,Placer
95604,Auburn,CA,Placer
95605,West Sacramento,CA,Yolo
95606,Brooks,CA,Yolo
95607,Capay,CA,Yolo
95608,Carmichael,CA,Sacramento
95609,Carmichael,CA,Sacramento
95610,Citrus Heights,CA,Sacramento
95611,Citrus Heights,CA,Sacramento
95612,Clarksburg,CA,Yolo
95613,Coloma,CA,El Dorado
95614,Cool,CA,El Dorado
95615,Courtland,CA,Sacramento
95616,Davis,CA,Yolo
95617,Davis,CA,Yolo
95618,Davis,CA,Yolo
95619,Diamond Springs,CA,El Dorado
95620,Dixon,CA,Solano
95621,Citrus Heights,CA,Sacramento
95623,El Dorado,CA,El Dorado
95624,Elk Grove,CA,Sacramento
95625,Elmira,CA,Solano
95626,Elverta,CA,Sacramento
95627,Esparto,CA,Yolo
95628,Fair Oaks,CA,Sacramento
95629,Fiddletown,CA,Amador
95630,Folsom,CA,Sacramento
95631,Foresthill,CA,Placer
95632,Galt,CA,Sacramento
95633,Garden Valley,CA,El Dorado
95634,Georgetown,CA,El Dorado
95635,Greenwood,CA,El Dorado
95636,Grizzly Flats,CA,El Dorado
95637,Guinda,CA,Yolo
95638,Herald,CA,Sacramento
95639,Hood,CA,Sacramento
95640,Ione,CA,Amador
95641,Isleton,CA,Sacramento
95642,Jackson,CA,Amador
95644,Kit Carson,CA,Amador
95645,Knights Landing,CA,Yolo
95646,Kirkwood,CA,Alpine
95648,Lincoln,CA,Placer
95650,Loomis,CA,Placer
95651,Lotus,CA,El Dorado
95652,Mcclellan,CA,Sacramento
95653,Madison,CA,Yolo
95654,Martell,CA,Amador
95655,Mather,CA,Sacramento
95656,Mount Aukum,CA,El Dorado
95658,Newcastle,CA,Placer
95659,Nicolaus,CA,Sutter
95660,North Highlands,CA,Sacramento
95661,Roseville,CA,Placer
95662,Orangevale,CA,Sacramento
95663,Penryn,CA,Placer
95664,Pilot Hill,CA,El Dorado
95665,Pine Grove,CA,Amador
95666,Pioneer,CA,Amador
95667,Placerville,CA,El Dorado
95668,Pleasant Grove,CA,Sutter
95669,Plymouth,CA,Amador
95670,Rancho Cordova,CA,Sacramento
95671,Represa,CA,Sacramento
95672,Rescue,CA,El Dorado
95673,Rio Linda,CA,Sacramento
95674,Rio Oso,CA,Sutter
95675,River Pines,CA,Amador
95676,Robbins,CA,Sutter
95677,Rocklin,CA,Placer
95678,Roseville,CA,Placer
95679,Rumsey,CA,Yolo
95680,Ryde,CA,Sacramento
95681,Sheridan,CA,Placer
95682,Shingle Springs,CA,El Dorado
95683,Sloughhouse,CA,Sacramento
95684,Somerset,CA,El Dorado
95685,Sutter Creek,CA,Amador
95686,Thornton,CA,San Joaquin
95687,Vacaville,CA,Solano
95688,Vacaville,CA,Solano
95689,Volcano,CA,Amador
95690,Walnut Grove,CA,Sacramento
95691,West Sacramento,CA,Yolo
95692,Wheatland,CA,Yuba
95693,Wilton,CA,Sacramento
95694,Winters,CA,Yolo
95695,Woodland,CA,Yolo
95696,Vacaville,CA,Solano
95697,Yolo,CA,Yolo
95698,Zamora,CA,Yolo
95699,Drytown,CA,Amador
95701,Alta,CA,Placer
95703,Applegate,CA,Placer
95709,Camino,CA,El Dorado
95712,Chicago Park,CA,Nevada
95713,Colfax,CA,Placer
95714,Dutch Flat,CA,Placer
95715,Emigrant Gap,CA,Placer
95717,Gold Run,CA,Placer
95720,Kyburz,CA,El Dorado
95721,Echo Lake,CA,El Dorado
95722,Meadow Vista,CA,Placer
95724,Norden,CA,Nevada
95726,Pollock Pines,CA,El Dorado
95728,Soda Springs,CA,Nevada
95735,Twin Bridges,CA,El Dorado
95736,Weimar,CA,Placer
95741,Rancho Cordova,CA,Sacramento
95742,Rancho Cordova,CA,Sacramento
95746,Granite Bay,CA,Placer
95747,Roseville,CA,Placer
95757,Elk Grove,CA,Sacramento
95758,Elk Grove,CA,Sacramento
95759,Elk Grove,CA,Sacramento
95762,El Dorado Hills,CA,El Dorado
95763,Folsom,CA,Sacramento
95765,Rocklin,CA,Placer
95776,Woodland,CA,Yolo
95798,West Sacramento,CA,Yolo
95799,West Sacramento,CA,Yolo
95812,Sacramento,CA,Sacramento
95813,Sacramento,CA,Sacramento
95814,Sacramento,CA,Sacramento
95815,Sacramento,CA,Sacramento
95816,Sacramento,CA,Sacramento
95817,Sacramento,CA,Sacramento
95818,Sacramento,CA,Sacramento
95819,Sacramento,CA,Sacramento
95820,Sacramento,CA,Sacramento
95821,Sacramento,CA,Sacramento
95822,Sacramento,CA,Sacramento
95823,Sacramento,CA,Sacramento
95824,Sacramento,CA,Sacramento
95825,Sacramento,CA,Sacramento
95826,Sacramento,CA,Sacramento
95827,Sacramento,CA,Sacramento
95828,Sacramento,CA,Sacramento
95829,Sacramento,CA,Sacramento
95830,Sacramento,CA,Sacramento
95831,Sacramento,CA,Sacramento
95832,Sacramento,CA,Sacramento
95833,Sacramento,CA,Sacramento
95834,Sacramento,CA,Sacramento
95835,Sacramento,CA,Sacramento
95836,Sacramento,CA,Sacramento
95837,Sacramento,CA,Sacramento
95838,Sacramento,CA,Sacramento
95840,Sacramento,CA,Sacramento
95841,Sacramento,CA,Sacramento
95842,Sacramento,CA,Sacramento
95843,Antelope,CA,Sacramento
95851,Sacramento,CA,Sacramento
95852,Sacramento,CA,Sacramento
95853,Sacramento,CA,Sacramento
95860,Sacramento,CA,Sacramento
95864,Sacramento,CA,Sacramento
95865,Sacramento,CA,Sacramento
95866,Sacramento,CA,Sacramento
95867,Sacramento,CA,Sacramento
95887,Sacramento,CA,Sacramento
95894,Sacramento,CA,Sacramento
95899,Sacramento,CA,Sacramento
95901,Marysville,CA,Yuba
95903,Beale Afb,CA,Yuba
95910,Alleghany,CA,Sierra
95912,Arbuckle,CA,Colusa
95913,Artois,CA,Glenn
95914,Bangor,CA,Butte
95915,Belden,CA,Plumas
95916,Berry Creek,CA,Butte
95917,Biggs,CA,Butte
95918,Browns Valley,CA,Yuba
95919,Brownsville,CA,Yuba
95920,Butte City,CA,Glenn
95922,Camptonville,CA,Yuba
95923,Canyon Dam,CA,Plumas
95924,Cedar Ridge,CA,Nevada
95925,Challenge,CA,Yuba
95926,Chico,CA,Butte
95927,Chico,CA,Butte
95928,Chico,CA,Butte
95929,Chico,CA,Butte
95930,Clipper Mills,CA,Butte
95932,Colusa,CA,Colusa
95934,Crescent Mills,CA,Plumas
95935,Dobbins,CA,Yuba
95936,Downieville,CA,Sierra
95937,Dunnigan,CA,Yolo
95938,Durham,CA,Butte
95939,Elk Creek,CA,Glenn
95940,Feather Falls,CA,Butte
95941,Forbestown,CA,Butte
95942,Forest Ranch,CA,Butte
95943,Glenn,CA,Glenn
95944,Goodyears Bar,CA,Sierra
95945,Grass Valley,CA,Nevada
95946,Penn Valley,CA,Nevada
95947,Greenville,CA,Plumas
95948,Gridley,CA,Butte
95949,Grass Valley,CA,Nevada
95950,Grimes,CA,Colusa
95951,Hamilton City,CA,Glenn
95953,Live Oak,CA,Sutter
95954,Magalia,CA,Butte
95955,Maxwell,CA,Colusa
95956,Meadow Valley,CA,Plumas
95957,Meridian,CA,Sutter
95958,Nelson,CA,Butte
95959,Nevada City,CA,Nevada
95960,North San Juan,CA,Nevada
95961,Olivehurst,CA,Yuba
95962,Oregon House,CA,Yuba
95963,Orland,CA,Glenn
95965,Oroville,CA,Butte
95966,Oroville,CA,Butte
95967,Paradise,CA,Butte
95968,Palermo,CA,Butte
95969,Paradise,CA,Butte
95970,Princeton,CA,Colusa
95971,Quincy,CA,Plumas
95972,Rackerby,CA,Yuba
95973,Chico,CA,Butte
95974,Richvale,CA,Butte
95975,Rough And Ready,CA,Nevada
95976,Chico,CA,Butte
95977,Smartville,CA,Nevada
95978,Stirling City,CA,Butte
95979,Stonyford,CA,Colusa
95980,Storrie,CA,Plumas
95981,Strawberry Valley,CA,Yuba
95982,Sutter,CA,Sutter
95983,Taylorsville,CA,Plumas
95984,Twain,CA,Plumas
95986,Washington,CA,Nevada
95987,Williams,CA,Colusa
95988,Willows,CA,Glenn
95991,Yuba City,CA,Sutter
95992,Yuba City,CA,Sutter
95993,Yuba City,CA,Sutter
96001,Redding,CA,Shasta
96002,Redding,CA,Shasta
96003,Redding,CA,Shasta
96006,Adin,CA,Modoc
96007,Anderson,CA,Shasta
96008,Bella Vista,CA,Shasta
96009,Bieber,CA,Lassen
96010,Big Bar,CA,Trinity
96011,Big Bend,CA,Shasta
96013,Burney,CA,Shasta
96014,Callahan,CA,Siskiyou
96015,Canby,CA,Modoc
96016,Cassel,CA,Shasta
96017,Castella,CA,Shasta
96019,Shasta Lake,CA,Shasta
96020,Chester,CA,Plumas
96021,Corning,CA,Tehama
96022,Cottonwood,CA,Shasta
96023,Dorris,CA,Siskiyou
96024,Douglas City,CA,Trinity
96025,Dunsmuir,CA,Siskiyou
96027,Etna,CA,Siskiyou
96028,Fall River Mills,CA,Shasta
96029,Flournoy,CA,Tehama
96031,Forks Of Salmon,CA,Siskiyou
96032,Fort Jones,CA,Siskiyou
96033,French Gulch,CA,Shasta
96034,Gazelle,CA,Siskiyou
96035,Gerber,CA,Tehama
96037,Greenview,CA,Siskiyou
96038,Grenada,CA,Siskiyou
96039,Happy Camp,CA,Siskiyou
96040,Hat Creek,CA,Shasta
96041,Hayfork,CA,Trinity
96044,Hornbrook,CA,Siskiyou
96046,Hyampom,CA,Trinity
96047,Igo,CA,Shasta
96048,Junction City,CA,Trinity
96049,Redding,CA,Shasta
96050,Klamath River,CA,Siskiyou
96051,Lakehead,CA,Shasta
96052,Lewiston,CA,Trinity
96054,Lookout,CA,Modoc
96055,Los Molinos,CA,Tehama
96056,Mcarthur,CA,Lassen
96057,Mccloud,CA,Siskiyou
96058,Macdoel,CA,Siskiyou
96059,Manton,CA,Tehama
96061,Mill Creek,CA,Tehama
96062,Millville,CA,Shasta
96063,Mineral,CA,Tehama
96064,Montague,CA,Siskiyou
96065,Montgomery Creek,CA,Shasta
96067,Mount Shasta,CA,Siskiyou
96068,Nubieber,CA,Lassen
96069,Oak Run,CA,Shasta
96070,Obrien,CA,Shasta
96071,Old Station,CA,Shasta
96073,Palo Cedro,CA,Shasta
96074,Paskenta,CA,Tehama
96075,Paynes Creek,CA,Tehama
96076,Platina,CA,Shasta
96078,Proberta,CA,Tehama
96079,Shasta Lake,CA,Shasta
96080,Red Bluff,CA,Tehama
96084,Round Mountain,CA,Shasta
96085,Scott Bar,CA,Siskiyou
96086,Seiad Valley,CA,Siskiyou
96087,Shasta,CA,Shasta
96088,Shingletown,CA,Shasta
96089,Shasta Lake,CA,Shasta
96090,Tehama,CA,Tehama
96091,Trinity Center,CA,Trinity
96092,Vina,CA,Tehama
96093,Weaverville,CA,Trinity
96094,Weed,CA,Siskiyou
96095,Whiskeytown,CA,Shasta
96096,Whitmore,CA,Shasta
96097,Yreka,CA,Siskiyou
96099,Redding,CA,Shasta
96101,Alturas,CA,Modoc
96103,Blairsden-graeagle,CA,Plumas
96104,Cedarville,CA,Modoc
96105,Chilcoot,CA,Plumas
96106,Clio,CA,Plumas
96107,Coleville,CA,Mono
96108,Davis Creek,CA,Modoc
96109,Doyle,CA,Lassen
96110,Eagleville,CA,Modoc
96111,Floriston,CA,Nevada
96112,Fort Bidwell,CA,Modoc
96113,Herlong,CA,Lassen
96114,Janesville,CA,Lassen
96115,Lake City,CA,Modoc
96116,Likely,CA,Modoc
96117,Litchfield,CA,Lassen
96118,Loyalton,CA,Sierra
96119,Madeline,CA,Lassen
96120,Markleeville,CA,Alpine
96121,Milford,CA,Lassen
96122,Portola,CA,Plumas
96123,Ravendale,CA,Lassen
96124,Calpine,CA,Sierra
96125,Sierra City,CA,Sierra
96126,Sierraville,CA,Sierra
96127,Susanville,CA,Lassen
96128,Standish,CA,Lassen
96129,Beckwourth,CA,Plumas
96130,Susanville,CA,Lassen
96132,Termo,CA,Lassen
96133,Topaz,CA,Mono
96134,Tulelake,CA,Siskiyou
96135,Vinton,CA,Plumas
96136,Wendel,CA,Lassen
96137,Westwood,CA,Lassen
96140,Carnelian Bay,CA,Placer
96141,Homewood,CA,Placer
96142,Tahoma,CA,El Dorado
96143,Kings Beach,CA,Placer
96145,Tahoe City,CA,Placer
96146,Olympic Valley,CA,Placer
96148,Tahoe Vista,CA,Placer
96150,South Lake Tahoe,CA,El Dorado
96151,South Lake Tahoe,CA,El Dorado
96152,South Lake Tahoe,CA,El Dorado
96154,South Lake Tahoe,CA,El Dorado
96155,South Lake Tahoe,CA,El Dorado
96156,South Lake Tahoe,CA,El Dorado
96157,South Lake Tahoe,CA,El Dorado
96158,South Lake Tahoe,CA,El Dorado
96160,Truckee,CA,Nevada
96161,Truckee,CA,Nevada
96162,Truckee,CA,Nevada